{"type": "FeatureCollection", "features": [{"type": "Feature", "geometry": {"type": "Point", "coordinates": [-129.336, 23.322666666666667]}, "properties": {"source": "satellite", "model_type": "cnn", "pred_class": 0, "severe_prob": 3.3005553892275205e-32, "timestamp": "2024-03-01T13:30:00+00:00", "step": 3}}, {"type": "Feature", "geometry": {"type": "Point", "coordinates": [-126.84, 23.322666666666667]}, "properties": {"source": "satellite", "model_type": "cnn", "pred_class": 0, "severe_prob": 1.2883964689885403e-31, "timestamp": "2024-03-01T13:30:00+00:00", "step": 3}}, {"type": "Feature", "geometry": {"type": "Point", "coordinates": [-124.344, 23.322666666666667]}, "properties": {"source": "satellite", "model_type": "cnn", "pred_class": 0, "severe_prob": 5.029121242704915e-31, "timestamp": "2024-03-01T13:30:00+00:00", "step": 3}}, {"type": "Feature", "geometry": {"type": "Point", "coordinates": [-121.848, 23.322666666666667]}, "properties": {"source": "satellite", "model_type": "cnn", "pred_class": 0, "severe_prob": 1.955262760219915e-30, "timestamp": "2024-03-01T13:30:00+00:00", "step": 3}}, {"type": "Feature", "geometry": {"type": "Point", "coordinates": [-119.352, 23.322666666666667]}, "properties": {"source": "satellite", "model_type": "cnn", "pred_class": 0, "severe_prob": 7.575891443704932e-30, "timestamp": "2024-03-01T13:30:00+00:00", "step": 3}}, {"type": "Feature", "geometry": {"type": "Point", "coordinates": [-116.856, 23.322666666666667]}, "properties": {"source": "satellite", "model_type": "cnn", "pred_class": 0, "severe_prob": 2.87562796760301e-29, "timestamp": "2024-03-01T13:30:00+00:00", "step": 3}}, {"type": "Feature", "geometry": {"type": "Point", "coordinates": [-114.36, 23.322666666666667]}, "properties": {"source": "satellite", "model_type": "cnn", "pred_class": 0, "severe_prob": 1.0534752536363113e-28, "timestamp": "2024-03-01T13:30:00+00:00", "step": 3}}, {"type": "Feature", "geometry": {"type": "Point", "coordinates": [-111.864, 23.322666666666667]}, "properties": {"source": "satellite", "model_type": "cnn", "pred_class": 0, "severe_prob": 3.859366441473964e-28, "timestamp": "2024-03-01T13:30:00+00:00", "step": 3}}, {"type": "Feature", "geometry": {"type": "Point", "coordinates": [-109.368, 23.322666666666667]}, "properties": {"source": "satellite", "model_type": "cnn", "pred_class": 0, "severe_prob": 1.4138802537710793e-27, "timestamp": "2024-03-01T13:30:00+00:00", "step": 3}}, {"type": "Feature", "geometry": {"type": "Point", "coordinates": [-106.872, 23.322666666666667]}, "properties": {"source": "satellite", "model_type": "cnn", "pred_class": 0, "severe_prob": 5.234818566916436e-27, "timestamp": "2024-03-01T13:30:00+00:00", "step": 3}}, {"type": "Feature", "geometry": {"type": "Point", "coordinates": [-104.376, 23.322666666666667]}, "properties": {"source": "satellite", "model_type": "cnn", "pred_class": 0, "severe_prob": 1.970346511136672e-26, "timestamp": "2024-03-01T13:30:00+00:00", "step": 3}}, {"type": "Feature", "geometry": {"type": "Point", "coordinates": [-101.88, 23.322666666666667]}, "properties": {"source": "satellite", "model_type": "cnn", "pred_class": 0, "severe_prob": 7.41629337635101e-26, "timestamp": "2024-03-01T13:30:00+00:00", "step": 3}}, {"type": "Feature", "geometry": {"type": "Point", "coordinates": [-99.384, 23.322666666666667]}, "properties": {"source": "satellite", "model_type": "cnn", "pred_class": 0, "severe_prob": 2.791330818494415e-25, "timestamp": "2024-03-01T13:30:00+00:00", "step": 3}}, {"type": "Feature", "geometry": {"type": "Point", "coordinates": [-96.888, 23.322666666666667]}, "properties": {"source": "satellite", "model_type": "cnn", "pred_class": 0, "severe_prob": 1.0506441007957651e-24, "timestamp": "2024-03-01T13:30:00+00:00", "step": 3}}, {"type": "Feature", "geometry": {"type": "Point", "coordinates": [-94.392, 23.322666666666667]}, "properties": {"source": "satellite", "model_type": "cnn", "pred_class": 0, "severe_prob": 3.9546212490235394e-24, "timestamp": "2024-03-01T13:30:00+00:00", "step": 3}}, {"type": "Feature", "geometry": {"type": "Point", "coordinates": [-91.896, 23.322666666666667]}, "properties": {"source": "satellite", "model_type": "cnn", "pred_class": 0, "severe_prob": 1.4889156362645872e-23, "timestamp": "2024-03-01T13:30:00+00:00", "step": 3}}, {"type": "Feature", "geometry": {"type": "Point", "coordinates": [-89.4, 23.322666666666667]}, "properties": {"source": "satellite", "model_type": "cnn", "pred_class": 0, "severe_prob": 5.605856376134385e-23, "timestamp": "2024-03-01T13:30:00+00:00", "step": 3}}, {"type": "Feature", "geometry": {"type": "Point", "coordinates": [-86.904, 23.322666666666667]}, "properties": {"source": "satellite", "model_type": "cnn", "pred_class": 0, "severe_prob": 2.1106061871609556e-22, "timestamp": "2024-03-01T13:30:00+00:00", "step": 3}}, {"type": "Feature", "geometry": {"type": "Point", "coordinates": [-84.408, 23.322666666666667]}, "properties": {"source": "satellite", "model_type": "cnn", "pred_class": 0, "severe_prob": 7.99118368908292e-22, "timestamp": "2024-03-01T13:30:00+00:00", "step": 3}}, {"type": "Feature", "geometry": {"type": "Point", "coordinates": [-81.912, 23.322666666666667]}, "properties": {"source": "satellite", "model_type": "cnn", "pred_class": 0, "severe_prob": 3.1280573994806497e-21, "timestamp": "2024-03-01T13:30:00+00:00", "step": 3}}, {"type": "Feature", "geometry": {"type": "Point", "coordinates": [-79.416, 23.322666666666667]}, "properties": {"source": "satellite", "model_type": "cnn", "pred_class": 0, "severe_prob": 1.2244655249013734e-20, "timestamp": "2024-03-01T13:30:00+00:00", "step": 3}}, {"type": "Feature", "geometry": {"type": "Point", "coordinates": [-76.92, 23.322666666666667]}, "properties": {"source": "satellite", "model_type": "cnn", "pred_class": 0, "severe_prob": 4.793085134741448e-20, "timestamp": "2024-03-01T13:30:00+00:00", "step": 3}}, {"type": "Feature", "geometry": {"type": "Point", "coordinates": [-74.424, 23.322666666666667]}, "properties": {"source": "satellite", "model_type": "cnn", "pred_class": 0, "severe_prob": 1.8764774433994136e-19, "timestamp": "2024-03-01T13:30:00+00:00", "step": 3}}, {"type": "Feature", "geometry": {"type": "Point", "coordinates": [-71.928, 23.322666666666667]}, "properties": {"source": "satellite", "model_type": "cnn", "pred_class": 0, "severe_prob": 6.8634763319431655e-19, "timestamp": "2024-03-01T13:30:00+00:00", "step": 3}}, {"type": "Feature", "geometry": {"type": "Point", "coordinates": [-69.432, 23.322666666666667]}, "properties": {"source": "satellite", "model_type": "cnn", "pred_class": 0, "severe_prob": 2.2548813217249057e-18, "timestamp": "2024-03-01T13:30:00+00:00", "step": 3}}, {"type": "Feature", "geometry": {"type": "Point", "coordinates": [-129.336, 25.306666666666665]}, "properties": {"source": "satellite", "model_type": "cnn", "pred_class": 0, "severe_prob": 2.68237055084336e-32, "timestamp": "2024-03-01T13:30:00+00:00", "step": 3}}, {"type": "Feature", "geometry": {"type": "Point", "coordinates": [-126.84, 25.306666666666665]}, "properties": {"source": "satellite", "model_type": "cnn", "pred_class": 0, "severe_prob": 1.0225546599681574e-31, "timestamp": "2024-03-01T13:30:00+00:00", "step": 3}}, {"type": "Feature", "geometry": {"type": "Point", "coordinates": [-124.344, 25.306666666666665]}, "properties": {"source": "satellite", "model_type": "cnn", "pred_class": 0, "severe_prob": 3.745975354333193e-31, "timestamp": "2024-03-01T13:30:00+00:00", "step": 3}}, {"type": "Feature", "geometry": {"type": "Point", "coordinates": [-121.848, 25.306666666666665]}, "properties": {"source": "satellite", "model_type": "cnn", "pred_class": 0, "severe_prob": 1.3723655804607158e-30, "timestamp": "2024-03-01T13:30:00+00:00", "step": 3}}, {"type": "Feature", "geometry": {"type": "Point", "coordinates": [-119.352, 25.306666666666665]}, "properties": {"source": "satellite", "model_type": "cnn", "pred_class": 0, "severe_prob": 5.027570154399118e-30, "timestamp": "2024-03-01T13:30:00+00:00", "step": 3}}, {"type": "Feature", "geometry": {"type": "Point", "coordinates": [-116.856, 25.306666666666665]}, "properties": {"source": "satellite", "model_type": "cnn", "pred_class": 0, "severe_prob": 1.847996286407945e-29, "timestamp": "2024-03-01T13:30:00+00:00", "step": 3}}, {"type": "Feature", "geometry": {"type": "Point", "coordinates": [-114.36, 25.306666666666665]}, "properties": {"source": "satellite", "model_type": "cnn", "pred_class": 0, "severe_prob": 6.955666318583959e-29, "timestamp": "2024-03-01T13:30:00+00:00", "step": 3}}, {"type": "Feature", "geometry": {"type": "Point", "coordinates": [-111.864, 25.306666666666665]}, "properties": {"source": "satellite", "model_type": "cnn", "pred_class": 0, "severe_prob": 2.6180509070191907e-28, "timestamp": "2024-03-01T13:30:00+00:00", "step": 3}}, {"type": "Feature", "geometry": {"type": "Point", "coordinates": [-109.368, 25.306666666666665]}, "properties": {"source": "satellite", "model_type": "cnn", "pred_class": 0, "severe_prob": 9.854109153234734e-28, "timestamp": "2024-03-01T13:30:00+00:00", "step": 3}}, {"type": "Feature", "geometry": {"type": "Point", "coordinates": [-106.872, 25.306666666666665]}, "properties": {"source": "satellite", "model_type": "cnn", "pred_class": 0, "severe_prob": 3.7089281535097396e-27, "timestamp": "2024-03-01T13:30:00+00:00", "step": 3}}, {"type": "Feature", "geometry": {"type": "Point", "coordinates": [-104.376, 25.306666666666665]}, "properties": {"source": "satellite", "model_type": "cnn", "pred_class": 0, "severe_prob": 1.3960234165127097e-26, "timestamp": "2024-03-01T13:30:00+00:00", "step": 3}}, {"type": "Feature", "geometry": {"type": "Point", "coordinates": [-101.88, 25.306666666666665]}, "properties": {"source": "satellite", "model_type": "cnn", "pred_class": 0, "severe_prob": 5.254808333069616e-26, "timestamp": "2024-03-01T13:30:00+00:00", "step": 3}}, {"type": "Feature", "geometry": {"type": "Point", "coordinates": [-99.384, 25.306666666666665]}, "properties": {"source": "satellite", "model_type": "cnn", "pred_class": 0, "severe_prob": 1.9784139697472377e-25, "timestamp": "2024-03-01T13:30:00+00:00", "step": 3}}, {"type": "Feature", "geometry": {"type": "Point", "coordinates": [-96.888, 25.306666666666665]}, "properties": {"source": "satellite", "model_type": "cnn", "pred_class": 0, "severe_prob": 7.448874810850835e-25, "timestamp": "2024-03-01T13:30:00+00:00", "step": 3}}, {"type": "Feature", "geometry": {"type": "Point", "coordinates": [-94.392, 25.306666666666665]}, "properties": {"source": "satellite", "model_type": "cnn", "pred_class": 0, "severe_prob": 2.8045243692228167e-24, "timestamp": "2024-03-01T13:30:00+00:00", "step": 3}}, {"type": "Feature", "geometry": {"type": "Point", "coordinates": [-91.896, 25.306666666666665]}, "properties": {"source": "satellite", "model_type": "cnn", "pred_class": 0, "severe_prob": 1.0558960014368419e-23, "timestamp": "2024-03-01T13:30:00+00:00", "step": 3}}, {"type": "Feature", "geometry": {"type": "Point", "coordinates": [-89.4, 25.306666666666665]}, "properties": {"source": "satellite", "model_type": "cnn", "pred_class": 0, "severe_prob": 4.015811611719723e-23, "timestamp": "2024-03-01T13:30:00+00:00", "step": 3}}, {"type": "Feature", "geometry": {"type": "Point", "coordinates": [-86.904, 25.306666666666665]}, "properties": {"source": "satellite", "model_type": "cnn", "pred_class": 0, "severe_prob": 1.5719314451799565e-22, "timestamp": "2024-03-01T13:30:00+00:00", "step": 3}}, {"type": "Feature", "geometry": {"type": "Point", "coordinates": [-84.408, 25.306666666666665]}, "properties": {"source": "satellite", "model_type": "cnn", "pred_class": 0, "severe_prob": 6.15321603491976e-22, "timestamp": "2024-03-01T13:30:00+00:00", "step": 3}}, {"type": "Feature", "geometry": {"type": "Point", "coordinates": [-81.912, 25.306666666666665]}, "properties": {"source": "satellite", "model_type": "cnn", "pred_class": 0, "severe_prob": 2.4085875772474604e-21, "timestamp": "2024-03-01T13:30:00+00:00", "step": 3}}, {"type": "Feature", "geometry": {"type": "Point", "coordinates": [-79.416, 25.306666666666665]}, "properties": {"source": "satellite", "model_type": "cnn", "pred_class": 0, "severe_prob": 9.430226529177476e-21, "timestamp": "2024-03-01T13:30:00+00:00", "step": 3}}, {"type": "Feature", "geometry": {"type": "Point", "coordinates": [-76.92, 25.306666666666665]}, "properties": {"source": "satellite", "model_type": "cnn", "pred_class": 0, "severe_prob": 3.299342028195303e-20, "timestamp": "2024-03-01T13:30:00+00:00", "step": 3}}, {"type": "Feature", "geometry": {"type": "Point", "coordinates": [-74.424, 25.306666666666665]}, "properties": {"source": "satellite", "model_type": "cnn", "pred_class": 0, "severe_prob": 1.0839440662849937e-19, "timestamp": "2024-03-01T13:30:00+00:00", "step": 3}}, {"type": "Feature", "geometry": {"type": "Point", "coordinates": [-71.928, 25.306666666666665]}, "properties": {"source": "satellite", "model_type": "cnn", "pred_class": 0, "severe_prob": 3.554725964385381e-19, "timestamp": "2024-03-01T13:30:00+00:00", "step": 3}}, {"type": "Feature", "geometry": {"type": "Point", "coordinates": [-69.432, 25.306666666666665]}, "properties": {"source": "satellite", "model_type": "cnn", "pred_class": 0, "severe_prob": 1.059570491602477e-18, "timestamp": "2024-03-01T13:30:00+00:00", "step": 3}}, {"type": "Feature", "geometry": {"type": "Point", "coordinates": [-129.336, 27.290666666666667]}, "properties": {"source": "satellite", "model_type": "cnn", "pred_class": 0, "severe_prob": 1.7877029759268677e-32, "timestamp": "2024-03-01T13:30:00+00:00", "step": 3}}, {"type": "Feature", "geometry": {"type": "Point", "coordinates": [-126.84, 27.290666666666667]}, "properties": {"source": "satellite", "model_type": "cnn", "pred_class": 0, "severe_prob": 6.54923151077585e-32, "timestamp": "2024-03-01T13:30:00+00:00", "step": 3}}, {"type": "Feature", "geometry": {"type": "Point", "coordinates": [-124.344, 27.290666666666667]}, "properties": {"source": "satellite", "model_type": "cnn", "pred_class": 0, "severe_prob": 2.4554901494326764e-31, "timestamp": "2024-03-01T13:30:00+00:00", "step": 3}}, {"type": "Feature", "geometry": {"type": "Point", "coordinates": [-121.848, 27.290666666666667]}, "properties": {"source": "satellite", "model_type": "cnn", "pred_class": 0, "severe_prob": 9.242069486164977e-31, "timestamp": "2024-03-01T13:30:00+00:00", "step": 3}}, {"type": "Feature", "geometry": {"type": "Point", "coordinates": [-119.352, 27.290666666666667]}, "properties": {"source": "satellite", "model_type": "cnn", "pred_class": 0, "severe_prob": 3.478645886682183e-30, "timestamp": "2024-03-01T13:30:00+00:00", "step": 3}}, {"type": "Feature", "geometry": {"type": "Point", "coordinates": [-116.856, 27.290666666666667]}, "properties": {"source": "satellite", "model_type": "cnn", "pred_class": 0, "severe_prob": 1.3093362504543708e-29, "timestamp": "2024-03-01T13:30:00+00:00", "step": 3}}, {"type": "Feature", "geometry": {"type": "Point", "coordinates": [-114.36, 27.290666666666667]}, "properties": {"source": "satellite", "model_type": "cnn", "pred_class": 0, "severe_prob": 4.9282434772461616e-29, "timestamp": "2024-03-01T13:30:00+00:00", "step": 3}}, {"type": "Feature", "geometry": {"type": "Point", "coordinates": [-111.864, 27.290666666666667]}, "properties": {"source": "satellite", "model_type": "cnn", "pred_class": 0, "severe_prob": 1.8549186202958695e-28, "timestamp": "2024-03-01T13:30:00+00:00", "step": 3}}, {"type": "Feature", "geometry": {"type": "Point", "coordinates": [-109.368, 27.290666666666667]}, "properties": {"source": "satellite", "model_type": "cnn", "pred_class": 0, "severe_prob": 6.9823343094120245e-28, "timestamp": "2024-03-01T13:30:00+00:00", "step": 3}}, {"type": "Feature", "geometry": {"type": "Point", "coordinates": [-106.872, 27.290666666666667]}, "properties": {"source": "satellite", "model_type": "cnn", "pred_class": 0, "severe_prob": 2.628820225785718e-27, "timestamp": "2024-03-01T13:30:00+00:00", "step": 3}}, {"type": "Feature", "geometry": {"type": "Point", "coordinates": [-104.376, 27.290666666666667]}, "properties": {"source": "satellite", "model_type": "cnn", "pred_class": 0, "severe_prob": 9.897778459165748e-27, "timestamp": "2024-03-01T13:30:00+00:00", "step": 3}}, {"type": "Feature", "geometry": {"type": "Point", "coordinates": [-101.88, 27.290666666666667]}, "properties": {"source": "satellite", "model_type": "cnn", "pred_class": 0, "severe_prob": 3.7265299206062746e-26, "timestamp": "2024-03-01T13:30:00+00:00", "step": 3}}, {"type": "Feature", "geometry": {"type": "Point", "coordinates": [-99.384, 27.290666666666667]}, "properties": {"source": "satellite", "model_type": "cnn", "pred_class": 0, "severe_prob": 1.403028686240347e-25, "timestamp": "2024-03-01T13:30:00+00:00", "step": 3}}, {"type": "Feature", "geometry": {"type": "Point", "coordinates": [-96.888, 27.290666666666667]}, "properties": {"source": "satellite", "model_type": "cnn", "pred_class": 0, "severe_prob": 5.282466535963763e-25, "timestamp": "2024-03-01T13:30:00+00:00", "step": 3}}, {"type": "Feature", "geometry": {"type": "Point", "coordinates": [-94.392, 27.290666666666667]}, "properties": {"source": "satellite", "model_type": "cnn", "pred_class": 0, "severe_prob": 2.0180128889927793e-24, "timestamp": "2024-03-01T13:30:00+00:00", "step": 3}}, {"type": "Feature", "geometry": {"type": "Point", "coordinates": [-91.896, 27.290666666666667]}, "properties": {"source": "satellite", "model_type": "cnn", "pred_class": 0, "severe_prob": 7.899310739250346e-24, "timestamp": "2024-03-01T13:30:00+00:00", "step": 3}}, {"type": "Feature", "geometry": {"type": "Point", "coordinates": [-89.4, 27.290666666666667]}, "properties": {"source": "satellite", "model_type": "cnn", "pred_class": 0, "severe_prob": 3.0920712689240225e-23, "timestamp": "2024-03-01T13:30:00+00:00", "step": 3}}, {"type": "Feature", "geometry": {"type": "Point", "coordinates": [-86.904, 27.290666666666667]}, "properties": {"source": "satellite", "model_type": "cnn", "pred_class": 0, "severe_prob": 1.2103650640987028e-22, "timestamp": "2024-03-01T13:30:00+00:00", "step": 3}}, {"type": "Feature", "geometry": {"type": "Point", "coordinates": [-84.408, 27.290666666666667]}, "properties": {"source": "satellite", "model_type": "cnn", "pred_class": 0, "severe_prob": 4.739227417175024e-22, "timestamp": "2024-03-01T13:30:00+00:00", "step": 3}}, {"type": "Feature", "geometry": {"type": "Point", "coordinates": [-81.912, 27.290666666666667]}, "properties": {"source": "satellite", "model_type": "cnn", "pred_class": 0, "severe_prob": 1.5860025022967903e-21, "timestamp": "2024-03-01T13:30:00+00:00", "step": 3}}, {"type": "Feature", "geometry": {"type": "Point", "coordinates": [-79.416, 27.290666666666667]}, "properties": {"source": "satellite", "model_type": "cnn", "pred_class": 0, "severe_prob": 5.2105286163322955e-21, "timestamp": "2024-03-01T13:30:00+00:00", "step": 3}}, {"type": "Feature", "geometry": {"type": "Point", "coordinates": [-76.92, 27.290666666666667]}, "properties": {"source": "satellite", "model_type": "cnn", "pred_class": 0, "severe_prob": 1.672331400796343e-20, "timestamp": "2024-03-01T13:30:00+00:00", "step": 3}}, {"type": "Feature", "geometry": {"type": "Point", "coordinates": [-74.424, 27.290666666666667]}, "properties": {"source": "satellite", "model_type": "cnn", "pred_class": 0, "severe_prob": 4.9847616234807374e-20, "timestamp": "2024-03-01T13:30:00+00:00", "step": 3}}, {"type": "Feature", "geometry": {"type": "Point", "coordinates": [-71.928, 27.290666666666667]}, "properties": {"source": "satellite", "model_type": "cnn", "pred_class": 0, "severe_prob": 1.492683475256767e-19, "timestamp": "2024-03-01T13:30:00+00:00", "step": 3}}, {"type": "Feature", "geometry": {"type": "Point", "coordinates": [-69.432, 27.290666666666667]}, "properties": {"source": "satellite", "model_type": "cnn", "pred_class": 0, "severe_prob": 4.546928075166972e-19, "timestamp": "2024-03-01T13:30:00+00:00", "step": 3}}, {"type": "Feature", "geometry": {"type": "Point", "coordinates": [-129.336, 29.27466666666667]}, "properties": {"source": "satellite", "model_type": "cnn", "pred_class": 0, "severe_prob": 1.2280131608967226e-32, "timestamp": "2024-03-01T13:30:00+00:00", "step": 3}}, {"type": "Feature", "geometry": {"type": "Point", "coordinates": [-126.84, 29.27466666666667]}, "properties": {"source": "satellite", "model_type": "cnn", "pred_class": 0, "severe_prob": 4.622184846755333e-32, "timestamp": "2024-03-01T13:30:00+00:00", "step": 3}}, {"type": "Feature", "geometry": {"type": "Point", "coordinates": [-124.344, 29.27466666666667]}, "properties": {"source": "satellite", "model_type": "cnn", "pred_class": 0, "severe_prob": 1.7397160051421196e-31, "timestamp": "2024-03-01T13:30:00+00:00", "step": 3}}, {"type": "Feature", "geometry": {"type": "Point", "coordinates": [-121.848, 29.27466666666667]}, "properties": {"source": "satellite", "model_type": "cnn", "pred_class": 0, "severe_prob": 6.548210711481596e-31, "timestamp": "2024-03-01T13:30:00+00:00", "step": 3}}, {"type": "Feature", "geometry": {"type": "Point", "coordinates": [-119.352, 29.27466666666667]}, "properties": {"source": "satellite", "model_type": "cnn", "pred_class": 0, "severe_prob": 2.464678753674184e-30, "timestamp": "2024-03-01T13:30:00+00:00", "step": 3}}, {"type": "Feature", "geometry": {"type": "Point", "coordinates": [-116.856, 29.27466666666667]}, "properties": {"source": "satellite", "model_type": "cnn", "pred_class": 0, "severe_prob": 9.277857552735084e-30, "timestamp": "2024-03-01T13:30:00+00:00", "step": 3}}, {"type": "Feature", "geometry": {"type": "Point", "coordinates": [-114.36, 29.27466666666667]}, "properties": {"source": "satellite", "model_type": "cnn", "pred_class": 0, "severe_prob": 3.4931819181690844e-29, "timestamp": "2024-03-01T13:30:00+00:00", "step": 3}}, {"type": "Feature", "geometry": {"type": "Point", "coordinates": [-111.864, 29.27466666666667]}, "properties": {"source": "satellite", "model_type": "cnn", "pred_class": 0, "severe_prob": 1.315178679311291e-28, "timestamp": "2024-03-01T13:30:00+00:00", "step": 3}}, {"type": "Feature", "geometry": {"type": "Point", "coordinates": [-109.368, 29.27466666666667]}, "properties": {"source": "satellite", "model_type": "cnn", "pred_class": 0, "severe_prob": 4.951707442870496e-28, "timestamp": "2024-03-01T13:30:00+00:00", "step": 3}}, {"type": "Feature", "geometry": {"type": "Point", "coordinates": [-106.872, 29.27466666666667]}, "properties": {"source": "satellite", "model_type": "cnn", "pred_class": 0, "severe_prob": 1.8642976824579166e-27, "timestamp": "2024-03-01T13:30:00+00:00", "step": 3}}, {"type": "Feature", "geometry": {"type": "Point", "coordinates": [-104.376, 29.27466666666667]}, "properties": {"source": "satellite", "model_type": "cnn", "pred_class": 0, "severe_prob": 7.019164927000011e-27, "timestamp": "2024-03-01T13:30:00+00:00", "step": 3}}, {"type": "Feature", "geometry": {"type": "Point", "coordinates": [-101.88, 29.27466666666667]}, "properties": {"source": "satellite", "model_type": "cnn", "pred_class": 0, "severe_prob": 2.642696974739616e-26, "timestamp": "2024-03-01T13:30:00+00:00", "step": 3}}, {"type": "Feature", "geometry": {"type": "Point", "coordinates": [-99.384, 29.27466666666667]}, "properties": {"source": "satellite", "model_type": "cnn", "pred_class": 0, "severe_prob": 1.0140777354332161e-25, "timestamp": "2024-03-01T13:30:00+00:00", "step": 3}}, {"type": "Feature", "geometry": {"type": "Point", "coordinates": [-96.888, 29.27466666666667]}, "properties": {"source": "satellite", "model_type": "cnn", "pred_class": 0, "severe_prob": 3.96952145101658e-25, "timestamp": "2024-03-01T13:30:00+00:00", "step": 3}}, {"type": "Feature", "geometry": {"type": "Point", "coordinates": [-94.392, 29.27466666666667]}, "properties": {"source": "satellite", "model_type": "cnn", "pred_class": 0, "severe_prob": 1.553865276161556e-24, "timestamp": "2024-03-01T13:30:00+00:00", "step": 3}}, {"type": "Feature", "geometry": {"type": "Point", "coordinates": [-91.896, 29.27466666666667]}, "properties": {"source": "satellite", "model_type": "cnn", "pred_class": 0, "severe_prob": 6.082404330193049e-24, "timestamp": "2024-03-01T13:30:00+00:00", "step": 3}}, {"type": "Feature", "geometry": {"type": "Point", "coordinates": [-89.4, 29.27466666666667]}, "properties": {"source": "satellite", "model_type": "cnn", "pred_class": 0, "severe_prob": 2.3206208394256005e-23, "timestamp": "2024-03-01T13:30:00+00:00", "step": 3}}, {"type": "Feature", "geometry": {"type": "Point", "coordinates": [-86.904, 29.27466666666667]}, "properties": {"source": "satellite", "model_type": "cnn", "pred_class": 0, "severe_prob": 7.62395694701678e-23, "timestamp": "2024-03-01T13:30:00+00:00", "step": 3}}, {"type": "Feature", "geometry": {"type": "Point", "coordinates": [-84.408, 29.27466666666667]}, "properties": {"source": "satellite", "model_type": "cnn", "pred_class": 0, "severe_prob": 2.5047436883856986e-22, "timestamp": "2024-03-01T13:30:00+00:00", "step": 3}}, {"type": "Feature", "geometry": {"type": "Point", "coordinates": [-81.912, 29.27466666666667]}, "properties": {"source": "satellite", "model_type": "cnn", "pred_class": 0, "severe_prob": 7.8674418315302485e-22, "timestamp": "2024-03-01T13:30:00+00:00", "step": 3}}, {"type": "Feature", "geometry": {"type": "Point", "coordinates": [-79.416, 29.27466666666667]}, "properties": {"source": "satellite", "model_type": "cnn", "pred_class": 0, "severe_prob": 2.345095810679047e-21, "timestamp": "2024-03-01T13:30:00+00:00", "step": 3}}, {"type": "Feature", "geometry": {"type": "Point", "coordinates": [-76.92, 29.27466666666667]}, "properties": {"source": "satellite", "model_type": "cnn", "pred_class": 0, "severe_prob": 7.03897500967025e-21, "timestamp": "2024-03-01T13:30:00+00:00", "step": 3}}, {"type": "Feature", "geometry": {"type": "Point", "coordinates": [-74.424, 29.27466666666667]}, "properties": {"source": "satellite", "model_type": "cnn", "pred_class": 0, "severe_prob": 2.1476599153661434e-20, "timestamp": "2024-03-01T13:30:00+00:00", "step": 3}}, {"type": "Feature", "geometry": {"type": "Point", "coordinates": [-71.928, 29.27466666666667]}, "properties": {"source": "satellite", "model_type": "cnn", "pred_class": 0, "severe_prob": 6.9577948258077e-20, "timestamp": "2024-03-01T13:30:00+00:00", "step": 3}}, {"type": "Feature", "geometry": {"type": "Point", "coordinates": [-69.432, 29.27466666666667]}, "properties": {"source": "satellite", "model_type": "cnn", "pred_class": 0, "severe_prob": 2.3211036955058877e-19, "timestamp": "2024-03-01T13:30:00+00:00", "step": 3}}, {"type": "Feature", "geometry": {"type": "Point", "coordinates": [-129.336, 31.258666666666667]}, "properties": {"source": "satellite", "model_type": "cnn", "pred_class": 0, "severe_prob": 8.700744698557637e-33, "timestamp": "2024-03-01T13:30:00+00:00", "step": 3}}, {"type": "Feature", "geometry": {"type": "Point", "coordinates": [-126.84, 31.258666666666667]}, "properties": {"source": "satellite", "model_type": "cnn", "pred_class": 0, "severe_prob": 3.274845270659923e-32, "timestamp": "2024-03-01T13:30:00+00:00", "step": 3}}, {"type": "Feature", "geometry": {"type": "Point", "coordinates": [-124.344, 31.258666666666667]}, "properties": {"source": "satellite", "model_type": "cnn", "pred_class": 0, "severe_prob": 1.2327966441395619e-31, "timestamp": "2024-03-01T13:30:00+00:00", "step": 3}}, {"type": "Feature", "geometry": {"type": "Point", "coordinates": [-121.848, 31.258666666666667]}, "properties": {"source": "satellite", "model_type": "cnn", "pred_class": 0, "severe_prob": 4.641534894363089e-31, "timestamp": "2024-03-01T13:30:00+00:00", "step": 3}}, {"type": "Feature", "geometry": {"type": "Point", "coordinates": [-119.352, 31.258666666666667]}, "properties": {"source": "satellite", "model_type": "cnn", "pred_class": 0, "severe_prob": 1.7475722805765182e-30, "timestamp": "2024-03-01T13:30:00+00:00", "step": 3}}, {"type": "Feature", "geometry": {"type": "Point", "coordinates": [-116.856, 31.258666666666667]}, "properties": {"source": "satellite", "model_type": "cnn", "pred_class": 0, "severe_prob": 6.579588323247418e-30, "timestamp": "2024-03-01T13:30:00+00:00", "step": 3}}, {"type": "Feature", "geometry": {"type": "Point", "coordinates": [-114.36, 31.258666666666667]}, "properties": {"source": "satellite", "model_type": "cnn", "pred_class": 0, "severe_prob": 2.4772446942449262e-29, "timestamp": "2024-03-01T13:30:00+00:00", "step": 3}}, {"type": "Feature", "geometry": {"type": "Point", "coordinates": [-111.864, 31.258666666666667]}, "properties": {"source": "satellite", "model_type": "cnn", "pred_class": 0, "severe_prob": 9.326796034475071e-29, "timestamp": "2024-03-01T13:30:00+00:00", "step": 3}}, {"type": "Feature", "geometry": {"type": "Point", "coordinates": [-109.368, 31.258666666666667]}, "properties": {"source": "satellite", "model_type": "cnn", "pred_class": 0, "severe_prob": 3.5115942899199124e-28, "timestamp": "2024-03-01T13:30:00+00:00", "step": 3}}, {"type": "Feature", "geometry": {"type": "Point", "coordinates": [-106.872, 31.258666666666667]}, "properties": {"source": "satellite", "model_type": "cnn", "pred_class": 0, "severe_prob": 1.3221060326541332e-27, "timestamp": "2024-03-01T13:30:00+00:00", "step": 3}}, {"type": "Feature", "geometry": {"type": "Point", "coordinates": [-104.376, 31.258666666666667]}, "properties": {"source": "satellite", "model_type": "cnn", "pred_class": 0, "severe_prob": 5.096066870003002e-27, "timestamp": "2024-03-01T13:30:00+00:00", "step": 3}}, {"type": "Feature", "geometry": {"type": "Point", "coordinates": [-101.88, 31.258666666666667]}, "properties": {"source": "satellite", "model_type": "cnn", "pred_class": 0, "severe_prob": 1.994759136888538e-26, "timestamp": "2024-03-01T13:30:00+00:00", "step": 3}}, {"type": "Feature", "geometry": {"type": "Point", "coordinates": [-99.384, 31.258666666666667]}, "properties": {"source": "satellite", "model_type": "cnn", "pred_class": 0, "severe_prob": 7.808345536591791e-26, "timestamp": "2024-03-01T13:30:00+00:00", "step": 3}}, {"type": "Feature", "geometry": {"type": "Point", "coordinates": [-96.888, 31.258666666666667]}, "properties": {"source": "satellite", "model_type": "cnn", "pred_class": 0, "severe_prob": 3.0564990162134716e-25, "timestamp": "2024-03-01T13:30:00+00:00", "step": 3}}, {"type": "Feature", "geometry": {"type": "Point", "coordinates": [-94.392, 31.258666666666667]}, "properties": {"source": "satellite", "model_type": "cnn", "pred_class": 0, "severe_prob": 1.115524458983733e-24, "timestamp": "2024-03-01T13:30:00+00:00", "step": 3}}, {"type": "Feature", "geometry": {"type": "Point", "coordinates": [-91.896, 31.258666666666667]}, "properties": {"source": "satellite", "model_type": "cnn", "pred_class": 0, "severe_prob": 3.6648426618214634e-24, "timestamp": "2024-03-01T13:30:00+00:00", "step": 3}}, {"type": "Feature", "geometry": {"type": "Point", "coordinates": [-89.4, 31.258666666666667]}, "properties": {"source": "satellite", "model_type": "cnn", "pred_class": 0, "severe_prob": 1.2040416339685417e-23, "timestamp": "2024-03-01T13:30:00+00:00", "step": 3}}, {"type": "Feature", "geometry": {"type": "Point", "coordinates": [-86.904, 31.258666666666667]}, "properties": {"source": "satellite", "model_type": "cnn", "pred_class": 0, "severe_prob": 3.7012608988275345e-23, "timestamp": "2024-03-01T13:30:00+00:00", "step": 3}}, {"type": "Feature", "geometry": {"type": "Point", "coordinates": [-84.408, 31.258666666666667]}, "properties": {"source": "satellite", "model_type": "cnn", "pred_class": 0, "severe_prob": 1.10324873411349e-22, "timestamp": "2024-03-01T13:30:00+00:00", "step": 3}}, {"type": "Feature", "geometry": {"type": "Point", "coordinates": [-81.912, 31.258666666666667]}, "properties": {"source": "satellite", "model_type": "cnn", "pred_class": 0, "severe_prob": 3.319373208392298e-22, "timestamp": "2024-03-01T13:30:00+00:00", "step": 3}}, {"type": "Feature", "geometry": {"type": "Point", "coordinates": [-79.416, 31.258666666666667]}, "properties": {"source": "satellite", "model_type": "cnn", "pred_class": 0, "severe_prob": 1.0144125201127828e-21, "timestamp": "2024-03-01T13:30:00+00:00", "step": 3}}, {"type": "Feature", "geometry": {"type": "Point", "coordinates": [-76.92, 31.258666666666667]}, "properties": {"source": "satellite", "model_type": "cnn", "pred_class": 0, "severe_prob": 3.2976793063067793e-21, "timestamp": "2024-03-01T13:30:00+00:00", "step": 3}}, {"type": "Feature", "geometry": {"type": "Point", "coordinates": [-74.424, 31.258666666666667]}, "properties": {"source": "satellite", "model_type": "cnn", "pred_class": 0, "severe_prob": 1.0955708329645081e-20, "timestamp": "2024-03-01T13:30:00+00:00", "step": 3}}, {"type": "Feature", "geometry": {"type": "Point", "coordinates": [-71.928, 31.258666666666667]}, "properties": {"source": "satellite", "model_type": "cnn", "pred_class": 0, "severe_prob": 3.867546931242183e-20, "timestamp": "2024-03-01T13:30:00+00:00", "step": 3}}, {"type": "Feature", "geometry": {"type": "Point", "coordinates": [-69.432, 31.258666666666667]}, "properties": {"source": "satellite", "model_type": "cnn", "pred_class": 0, "severe_prob": 1.3653290679374835e-19, "timestamp": "2024-03-01T13:30:00+00:00", "step": 3}}, {"type": "Feature", "geometry": {"type": "Point", "coordinates": [-129.336, 33.242666666666665]}, "properties": {"source": "satellite", "model_type": "cnn", "pred_class": 0, "severe_prob": 6.167493393766159e-33, "timestamp": "2024-03-01T13:30:00+00:00", "step": 3}}, {"type": "Feature", "geometry": {"type": "Point", "coordinates": [-126.84, 33.242666666666665]}, "properties": {"source": "satellite", "model_type": "cnn", "pred_class": 0, "severe_prob": 2.3220890260928152e-32, "timestamp": "2024-03-01T13:30:00+00:00", "step": 3}}, {"type": "Feature", "geometry": {"type": "Point", "coordinates": [-124.344, 33.242666666666665]}, "properties": {"source": "satellite", "model_type": "cnn", "pred_class": 0, "severe_prob": 8.742703969410239e-32, "timestamp": "2024-03-01T13:30:00+00:00", "step": 3}}, {"type": "Feature", "geometry": {"type": "Point", "coordinates": [-121.848, 33.242666666666665]}, "properties": {"source": "satellite", "model_type": "cnn", "pred_class": 0, "severe_prob": 3.2916423208618456e-31, "timestamp": "2024-03-01T13:30:00+00:00", "step": 3}}, {"type": "Feature", "geometry": {"type": "Point", "coordinates": [-119.352, 33.242666666666665]}, "properties": {"source": "satellite", "model_type": "cnn", "pred_class": 0, "severe_prob": 1.2393372357668592e-30, "timestamp": "2024-03-01T13:30:00+00:00", "step": 3}}, {"type": "Feature", "geometry": {"type": "Point", "coordinates": [-116.856, 33.242666666666665]}, "properties": {"source": "satellite", "model_type": "cnn", "pred_class": 0, "severe_prob": 4.666089654798094e-30, "timestamp": "2024-03-01T13:30:00+00:00", "step": 3}}, {"type": "Feature", "geometry": {"type": "Point", "coordinates": [-114.36, 33.242666666666665]}, "properties": {"source": "satellite", "model_type": "cnn", "pred_class": 0, "severe_prob": 1.7567904132361185e-29, "timestamp": "2024-03-01T13:30:00+00:00", "step": 3}}, {"type": "Feature", "geometry": {"type": "Point", "coordinates": [-111.864, 33.242666666666665]}, "properties": {"source": "satellite", "model_type": "cnn", "pred_class": 0, "severe_prob": 6.614345189749254e-29, "timestamp": "2024-03-01T13:30:00+00:00", "step": 3}}, {"type": "Feature", "geometry": {"type": "Point", "coordinates": [-109.368, 33.242666666666665]}, "properties": {"source": "satellite", "model_type": "cnn", "pred_class": 0, "severe_prob": 2.5608986951782564e-28, "timestamp": "2024-03-01T13:30:00+00:00", "step": 3}}, {"type": "Feature", "geometry": {"type": "Point", "coordinates": [-106.872, 33.242666666666665]}, "properties": {"source": "satellite", "model_type": "cnn", "pred_class": 0, "severe_prob": 1.002419187848346e-27, "timestamp": "2024-03-01T13:30:00+00:00", "step": 3}}, {"type": "Feature", "geometry": {"type": "Point", "coordinates": [-104.376, 33.242666666666665]}, "properties": {"source": "satellite", "model_type": "cnn", "pred_class": 0, "severe_prob": 3.9239147057838314e-27, "timestamp": "2024-03-01T13:30:00+00:00", "step": 3}}, {"type": "Feature", "geometry": {"type": "Point", "coordinates": [-101.88, 33.242666666666665]}, "properties": {"source": "satellite", "model_type": "cnn", "pred_class": 0, "severe_prob": 1.5360066300697827e-26, "timestamp": "2024-03-01T13:30:00+00:00", "step": 3}}, {"type": "Feature", "geometry": {"type": "Point", "coordinates": [-99.384, 33.242666666666665]}, "properties": {"source": "satellite", "model_type": "cnn", "pred_class": 0, "severe_prob": 5.362417588707913e-26, "timestamp": "2024-03-01T13:30:00+00:00", "step": 3}}, {"type": "Feature", "geometry": {"type": "Point", "coordinates": [-96.888, 33.242666666666665]}, "properties": {"source": "satellite", "model_type": "cnn", "pred_class": 0, "severe_prob": 1.7617333540866234e-25, "timestamp": "2024-03-01T13:30:00+00:00", "step": 3}}, {"type": "Feature", "geometry": {"type": "Point", "coordinates": [-94.392, 33.242666666666665]}, "properties": {"source": "satellite", "model_type": "cnn", "pred_class": 0, "severe_prob": 5.787905002118904e-25, "timestamp": "2024-03-01T13:30:00+00:00", "step": 3}}, {"type": "Feature", "geometry": {"type": "Point", "coordinates": [-91.896, 33.242666666666665]}, "properties": {"source": "satellite", "model_type": "cnn", "pred_class": 0, "severe_prob": 1.7412426181177978e-24, "timestamp": "2024-03-01T13:30:00+00:00", "step": 3}}, {"type": "Feature", "geometry": {"type": "Point", "coordinates": [-89.4, 33.242666666666665]}, "properties": {"source": "satellite", "model_type": "cnn", "pred_class": 0, "severe_prob": 5.19018686916998e-24, "timestamp": "2024-03-01T13:30:00+00:00", "step": 3}}, {"type": "Feature", "geometry": {"type": "Point", "coordinates": [-86.904, 33.242666666666665]}, "properties": {"source": "satellite", "model_type": "cnn", "pred_class": 0, "severe_prob": 1.5653423740285713e-23, "timestamp": "2024-03-01T13:30:00+00:00", "step": 3}}, {"type": "Feature", "geometry": {"type": "Point", "coordinates": [-84.408, 33.242666666666665]}, "properties": {"source": "satellite", "model_type": "cnn", "pred_class": 0, "severe_prob": 4.791377686332864e-23, "timestamp": "2024-03-01T13:30:00+00:00", "step": 3}}, {"type": "Feature", "geometry": {"type": "Point", "coordinates": [-81.912, 33.242666666666665]}, "properties": {"source": "satellite", "model_type": "cnn", "pred_class": 0, "severe_prob": 1.5629028374563934e-22, "timestamp": "2024-03-01T13:30:00+00:00", "step": 3}}, {"type": "Feature", "geometry": {"type": "Point", "coordinates": [-79.416, 33.242666666666665]}, "properties": {"source": "satellite", "model_type": "cnn", "pred_class": 0, "severe_prob": 5.171219765777554e-22, "timestamp": "2024-03-01T13:30:00+00:00", "step": 3}}, {"type": "Feature", "geometry": {"type": "Point", "coordinates": [-76.92, 33.242666666666665]}, "properties": {"source": "satellite", "model_type": "cnn", "pred_class": 0, "severe_prob": 1.825526421541836e-21, "timestamp": "2024-03-01T13:30:00+00:00", "step": 3}}, {"type": "Feature", "geometry": {"type": "Point", "coordinates": [-74.424, 33.242666666666665]}, "properties": {"source": "satellite", "model_type": "cnn", "pred_class": 0, "severe_prob": 6.4444607548240695e-21, "timestamp": "2024-03-01T13:30:00+00:00", "step": 3}}, {"type": "Feature", "geometry": {"type": "Point", "coordinates": [-71.928, 33.242666666666665]}, "properties": {"source": "satellite", "model_type": "cnn", "pred_class": 0, "severe_prob": 2.2750190725116004e-20, "timestamp": "2024-03-01T13:30:00+00:00", "step": 3}}, {"type": "Feature", "geometry": {"type": "Point", "coordinates": [-69.432, 33.242666666666665]}, "properties": {"source": "satellite", "model_type": "cnn", "pred_class": 0, "severe_prob": 8.058569303371763e-20, "timestamp": "2024-03-01T13:30:00+00:00", "step": 3}}, {"type": "Feature", "geometry": {"type": "Point", "coordinates": [-129.336, 35.22666666666667]}, "properties": {"source": "satellite", "model_type": "cnn", "pred_class": 0, "severe_prob": 4.3738080332143687e-33, "timestamp": "2024-03-01T13:30:00+00:00", "step": 3}}, {"type": "Feature", "geometry": {"type": "Point", "coordinates": [-126.84, 35.22666666666667]}, "properties": {"source": "satellite", "model_type": "cnn", "pred_class": 0, "severe_prob": 1.6467332852724434e-32, "timestamp": "2024-03-01T13:30:00+00:00", "step": 3}}, {"type": "Feature", "geometry": {"type": "Point", "coordinates": [-124.344, 35.22666666666667]}, "properties": {"source": "satellite", "model_type": "cnn", "pred_class": 0, "severe_prob": 6.200025640735547e-32, "timestamp": "2024-03-01T13:30:00+00:00", "step": 3}}, {"type": "Feature", "geometry": {"type": "Point", "coordinates": [-121.848, 35.22666666666667]}, "properties": {"source": "satellite", "model_type": "cnn", "pred_class": 0, "severe_prob": 2.334373324094572e-31, "timestamp": "2024-03-01T13:30:00+00:00", "step": 3}}, {"type": "Feature", "geometry": {"type": "Point", "coordinates": [-119.352, 35.22666666666667]}, "properties": {"source": "satellite", "model_type": "cnn", "pred_class": 0, "severe_prob": 8.788752785109351e-31, "timestamp": "2024-03-01T13:30:00+00:00", "step": 3}}, {"type": "Feature", "geometry": {"type": "Point", "coordinates": [-116.856, 35.22666666666667]}, "properties": {"source": "satellite", "model_type": "cnn", "pred_class": 0, "severe_prob": 3.309030515417853e-30, "timestamp": "2024-03-01T13:30:00+00:00", "step": 3}}, {"type": "Feature", "geometry": {"type": "Point", "coordinates": [-114.36, 35.22666666666667]}, "properties": {"source": "satellite", "model_type": "cnn", "pred_class": 0, "severe_prob": 1.2868946527039524e-29, "timestamp": "2024-03-01T13:30:00+00:00", "step": 3}}, {"type": "Feature", "geometry": {"type": "Point", "coordinates": [-111.864, 35.22666666666667]}, "properties": {"source": "satellite", "model_type": "cnn", "pred_class": 0, "severe_prob": 5.037421135601382e-29, "timestamp": "2024-03-01T13:30:00+00:00", "step": 3}}, {"type": "Feature", "geometry": {"type": "Point", "coordinates": [-109.368, 35.22666666666667]}, "properties": {"source": "satellite", "model_type": "cnn", "pred_class": 0, "severe_prob": 1.9718182345777999e-28, "timestamp": "2024-03-01T13:30:00+00:00", "step": 3}}, {"type": "Feature", "geometry": {"type": "Point", "coordinates": [-106.872, 35.22666666666667]}, "properties": {"source": "satellite", "model_type": "cnn", "pred_class": 0, "severe_prob": 7.719281291499592e-28, "timestamp": "2024-03-01T13:30:00+00:00", "step": 3}}, {"type": "Feature", "geometry": {"type": "Point", "coordinates": [-104.376, 35.22666666666667]}, "properties": {"source": "satellite", "model_type": "cnn", "pred_class": 0, "severe_prob": 2.5777185636063193e-27, "timestamp": "2024-03-01T13:30:00+00:00", "step": 3}}, {"type": "Feature", "geometry": {"type": "Point", "coordinates": [-101.88, 35.22666666666667]}, "properties": {"source": "satellite", "model_type": "cnn", "pred_class": 0, "severe_prob": 8.468602084590356e-27, "timestamp": "2024-03-01T13:30:00+00:00", "step": 3}}, {"type": "Feature", "geometry": {"type": "Point", "coordinates": [-99.384, 35.22666666666667]}, "properties": {"source": "satellite", "model_type": "cnn", "pred_class": 0, "severe_prob": 2.7482320808650054e-26, "timestamp": "2024-03-01T13:30:00+00:00", "step": 3}}, {"type": "Feature", "geometry": {"type": "Point", "coordinates": [-96.888, 35.22666666666667]}, "properties": {"source": "satellite", "model_type": "cnn", "pred_class": 0, "severe_prob": 8.191758437325238e-26, "timestamp": "2024-03-01T13:30:00+00:00", "step": 3}}, {"type": "Feature", "geometry": {"type": "Point", "coordinates": [-94.392, 35.22666666666667]}, "properties": {"source": "satellite", "model_type": "cnn", "pred_class": 0, "severe_prob": 2.4417665833493212e-25, "timestamp": "2024-03-01T13:30:00+00:00", "step": 3}}, {"type": "Feature", "geometry": {"type": "Point", "coordinates": [-91.896, 35.22666666666667]}, "properties": {"source": "satellite", "model_type": "cnn", "pred_class": 0, "severe_prob": 7.381721547179699e-25, "timestamp": "2024-03-01T13:30:00+00:00", "step": 3}}, {"type": "Feature", "geometry": {"type": "Point", "coordinates": [-89.4, 35.22666666666667]}, "properties": {"source": "satellite", "model_type": "cnn", "pred_class": 0, "severe_prob": 2.263138596300499e-24, "timestamp": "2024-03-01T13:30:00+00:00", "step": 3}}, {"type": "Feature", "geometry": {"type": "Point", "coordinates": [-86.904, 35.22666666666667]}, "properties": {"source": "satellite", "model_type": "cnn", "pred_class": 0, "severe_prob": 7.407253227592404e-24, "timestamp": "2024-03-01T13:30:00+00:00", "step": 3}}, {"type": "Feature", "geometry": {"type": "Point", "coordinates": [-84.408, 35.22666666666667]}, "properties": {"source": "satellite", "model_type": "cnn", "pred_class": 0, "severe_prob": 2.4408751113618536e-23, "timestamp": "2024-03-01T13:30:00+00:00", "step": 3}}, {"type": "Feature", "geometry": {"type": "Point", "coordinates": [-81.912, 35.22666666666667]}, "properties": {"source": "satellite", "model_type": "cnn", "pred_class": 0, "severe_prob": 8.61669422002673e-23, "timestamp": "2024-03-01T13:30:00+00:00", "step": 3}}, {"type": "Feature", "geometry": {"type": "Point", "coordinates": [-79.416, 35.22666666666667]}, "properties": {"source": "satellite", "model_type": "cnn", "pred_class": 0, "severe_prob": 3.041812814434647e-22, "timestamp": "2024-03-01T13:30:00+00:00", "step": 3}}, {"type": "Feature", "geometry": {"type": "Point", "coordinates": [-76.92, 35.22666666666667]}, "properties": {"source": "satellite", "model_type": "cnn", "pred_class": 0, "severe_prob": 1.073826847677839e-21, "timestamp": "2024-03-01T13:30:00+00:00", "step": 3}}, {"type": "Feature", "geometry": {"type": "Point", "coordinates": [-74.424, 35.22666666666667]}, "properties": {"source": "satellite", "model_type": "cnn", "pred_class": 0, "severe_prob": 3.7978939615799566e-21, "timestamp": "2024-03-01T13:30:00+00:00", "step": 3}}, {"type": "Feature", "geometry": {"type": "Point", "coordinates": [-71.928, 35.22666666666667]}, "properties": {"source": "satellite", "model_type": "cnn", "pred_class": 0, "severe_prob": 1.3492416813371629e-20, "timestamp": "2024-03-01T13:30:00+00:00", "step": 3}}, {"type": "Feature", "geometry": {"type": "Point", "coordinates": [-69.432, 35.22666666666667]}, "properties": {"source": "satellite", "model_type": "cnn", "pred_class": 0, "severe_prob": 4.8623476169934123e-20, "timestamp": "2024-03-01T13:30:00+00:00", "step": 3}}, {"type": "Feature", "geometry": {"type": "Point", "coordinates": [-129.336, 37.21066666666667]}, "properties": {"source": "satellite", "model_type": "cnn", "pred_class": 0, "severe_prob": 3.101801922769725e-33, "timestamp": "2024-03-01T13:30:00+00:00", "step": 3}}, {"type": "Feature", "geometry": {"type": "Point", "coordinates": [-126.84, 37.21066666666667]}, "properties": {"source": "satellite", "model_type": "cnn", "pred_class": 0, "severe_prob": 1.1678335072011848e-32, "timestamp": "2024-03-01T13:30:00+00:00", "step": 3}}, {"type": "Feature", "geometry": {"type": "Point", "coordinates": [-124.344, 37.21066666666667]}, "properties": {"source": "satellite", "model_type": "cnn", "pred_class": 0, "severe_prob": 4.396879020027576e-32, "timestamp": "2024-03-01T13:30:00+00:00", "step": 3}}, {"type": "Feature", "geometry": {"type": "Point", "coordinates": [-121.848, 37.21066666666667]}, "properties": {"source": "satellite", "model_type": "cnn", "pred_class": 0, "severe_prob": 1.655419542003127e-31, "timestamp": "2024-03-01T13:30:00+00:00", "step": 3}}, {"type": "Feature", "geometry": {"type": "Point", "coordinates": [-119.352, 37.21066666666667]}, "properties": {"source": "satellite", "model_type": "cnn", "pred_class": 0, "severe_prob": 6.466887191105268e-31, "timestamp": "2024-03-01T13:30:00+00:00", "step": 3}}, {"type": "Feature", "geometry": {"type": "Point", "coordinates": [-116.856, 37.21066666666667]}, "properties": {"source": "satellite", "model_type": "cnn", "pred_class": 0, "severe_prob": 2.5314178686200857e-30, "timestamp": "2024-03-01T13:30:00+00:00", "step": 3}}, {"type": "Feature", "geometry": {"type": "Point", "coordinates": [-114.36, 37.21066666666667]}, "properties": {"source": "satellite", "model_type": "cnn", "pred_class": 0, "severe_prob": 9.908983290878012e-30, "timestamp": "2024-03-01T13:30:00+00:00", "step": 3}}, {"type": "Feature", "geometry": {"type": "Point", "coordinates": [-111.864, 37.21066666666667]}, "properties": {"source": "satellite", "model_type": "cnn", "pred_class": 0, "severe_prob": 3.771702684489075e-29, "timestamp": "2024-03-01T13:30:00+00:00", "step": 3}}, {"type": "Feature", "geometry": {"type": "Point", "coordinates": [-109.368, 37.21066666666667]}, "properties": {"source": "satellite", "model_type": "cnn", "pred_class": 0, "severe_prob": 1.2391304465622445e-28, "timestamp": "2024-03-01T13:30:00+00:00", "step": 3}}, {"type": "Feature", "geometry": {"type": "Point", "coordinates": [-106.872, 37.21066666666667]}, "properties": {"source": "satellite", "model_type": "cnn", "pred_class": 0, "severe_prob": 4.070911308789187e-28, "timestamp": "2024-03-01T13:30:00+00:00", "step": 3}}, {"type": "Feature", "geometry": {"type": "Point", "coordinates": [-104.376, 37.21066666666667]}, "properties": {"source": "satellite", "model_type": "cnn", "pred_class": 0, "severe_prob": 1.2929188532364363e-27, "timestamp": "2024-03-01T13:30:00+00:00", "step": 3}}, {"type": "Feature", "geometry": {"type": "Point", "coordinates": [-101.88, 37.21066666666667]}, "properties": {"source": "satellite", "model_type": "cnn", "pred_class": 0, "severe_prob": 3.853763092745515e-27, "timestamp": "2024-03-01T13:30:00+00:00", "step": 3}}, {"type": "Feature", "geometry": {"type": "Point", "coordinates": [-99.384, 37.21066666666667]}, "properties": {"source": "satellite", "model_type": "cnn", "pred_class": 0, "severe_prob": 1.1499069029895205e-26, "timestamp": "2024-03-01T13:30:00+00:00", "step": 3}}, {"type": "Feature", "geometry": {"type": "Point", "coordinates": [-96.888, 37.21066666666667]}, "properties": {"source": "satellite", "model_type": "cnn", "pred_class": 0, "severe_prob": 3.480949200793614e-26, "timestamp": "2024-03-01T13:30:00+00:00", "step": 3}}, {"type": "Feature", "geometry": {"type": "Point", "coordinates": [-94.392, 37.21066666666667]}, "properties": {"source": "satellite", "model_type": "cnn", "pred_class": 0, "severe_prob": 1.0689611305402543e-25, "timestamp": "2024-03-01T13:30:00+00:00", "step": 3}}, {"type": "Feature", "geometry": {"type": "Point", "coordinates": [-91.896, 37.21066666666667]}, "properties": {"source": "satellite", "model_type": "cnn", "pred_class": 0, "severe_prob": 3.5106353925117614e-25, "timestamp": "2024-03-01T13:30:00+00:00", "step": 3}}, {"type": "Feature", "geometry": {"type": "Point", "coordinates": [-89.4, 37.21066666666667]}, "properties": {"source": "satellite", "model_type": "cnn", "pred_class": 0, "severe_prob": 1.1563655629840615e-24, "timestamp": "2024-03-01T13:30:00+00:00", "step": 3}}, {"type": "Feature", "geometry": {"type": "Point", "coordinates": [-86.904, 37.21066666666667]}, "properties": {"source": "satellite", "model_type": "cnn", "pred_class": 0, "severe_prob": 4.0671321412002336e-24, "timestamp": "2024-03-01T13:30:00+00:00", "step": 3}}, {"type": "Feature", "geometry": {"type": "Point", "coordinates": [-84.408, 37.21066666666667]}, "properties": {"source": "satellite", "model_type": "cnn", "pred_class": 0, "severe_prob": 1.4357815944490638e-23, "timestamp": "2024-03-01T13:30:00+00:00", "step": 3}}, {"type": "Feature", "geometry": {"type": "Point", "coordinates": [-81.912, 37.21066666666667]}, "properties": {"source": "satellite", "model_type": "cnn", "pred_class": 0, "severe_prob": 5.0685474363702494e-23, "timestamp": "2024-03-01T13:30:00+00:00", "step": 3}}, {"type": "Feature", "geometry": {"type": "Point", "coordinates": [-79.416, 37.21066666666667]}, "properties": {"source": "satellite", "model_type": "cnn", "pred_class": 0, "severe_prob": 1.7898821012599973e-22, "timestamp": "2024-03-01T13:30:00+00:00", "step": 3}}, {"type": "Feature", "geometry": {"type": "Point", "coordinates": [-76.92, 37.21066666666667]}, "properties": {"source": "satellite", "model_type": "cnn", "pred_class": 0, "severe_prob": 6.358889364741921e-22, "timestamp": "2024-03-01T13:30:00+00:00", "step": 3}}, {"type": "Feature", "geometry": {"type": "Point", "coordinates": [-74.424, 37.21066666666667]}, "properties": {"source": "satellite", "model_type": "cnn", "pred_class": 0, "severe_prob": 2.26120039029992e-21, "timestamp": "2024-03-01T13:30:00+00:00", "step": 3}}, {"type": "Feature", "geometry": {"type": "Point", "coordinates": [-71.928, 37.21066666666667]}, "properties": {"source": "satellite", "model_type": "cnn", "pred_class": 0, "severe_prob": 8.6496030988554e-21, "timestamp": "2024-03-01T13:30:00+00:00", "step": 3}}, {"type": "Feature", "geometry": {"type": "Point", "coordinates": [-69.432, 37.21066666666667]}, "properties": {"source": "satellite", "model_type": "cnn", "pred_class": 0, "severe_prob": 3.7546374238635483e-20, "timestamp": "2024-03-01T13:30:00+00:00", "step": 3}}, {"type": "Feature", "geometry": {"type": "Point", "coordinates": [-129.336, 39.19466666666666]}, "properties": {"source": "satellite", "model_type": "cnn", "pred_class": 0, "severe_prob": 2.1996915584342077e-33, "timestamp": "2024-03-01T13:30:00+00:00", "step": 3}}, {"type": "Feature", "geometry": {"type": "Point", "coordinates": [-126.84, 39.19466666666666]}, "properties": {"source": "satellite", "model_type": "cnn", "pred_class": 0, "severe_prob": 8.302055218325119e-33, "timestamp": "2024-03-01T13:30:00+00:00", "step": 3}}, {"type": "Feature", "geometry": {"type": "Point", "coordinates": [-124.344, 39.19466666666666]}, "properties": {"source": "satellite", "model_type": "cnn", "pred_class": 0, "severe_prob": 3.249781673985278e-32, "timestamp": "2024-03-01T13:30:00+00:00", "step": 3}}, {"type": "Feature", "geometry": {"type": "Point", "coordinates": [-121.848, 39.19466666666666]}, "properties": {"source": "satellite", "model_type": "cnn", "pred_class": 0, "severe_prob": 1.2720655610714365e-31, "timestamp": "2024-03-01T13:30:00+00:00", "step": 3}}, {"type": "Feature", "geometry": {"type": "Point", "coordinates": [-119.352, 39.19466666666666]}, "properties": {"source": "satellite", "model_type": "cnn", "pred_class": 0, "severe_prob": 4.979450023614309e-31, "timestamp": "2024-03-01T13:30:00+00:00", "step": 3}}, {"type": "Feature", "geometry": {"type": "Point", "coordinates": [-116.856, 39.19466666666666]}, "properties": {"source": "satellite", "model_type": "cnn", "pred_class": 0, "severe_prob": 1.8130745873862587e-30, "timestamp": "2024-03-01T13:30:00+00:00", "step": 3}}, {"type": "Feature", "geometry": {"type": "Point", "coordinates": [-114.36, 39.19466666666666]}, "properties": {"source": "satellite", "model_type": "cnn", "pred_class": 0, "severe_prob": 5.9565108657861514e-30, "timestamp": "2024-03-01T13:30:00+00:00", "step": 3}}, {"type": "Feature", "geometry": {"type": "Point", "coordinates": [-111.864, 39.19466666666666]}, "properties": {"source": "satellite", "model_type": "cnn", "pred_class": 0, "severe_prob": 1.9568979951133212e-29, "timestamp": "2024-03-01T13:30:00+00:00", "step": 3}}, {"type": "Feature", "geometry": {"type": "Point", "coordinates": [-109.368, 39.19466666666666]}, "properties": {"source": "satellite", "model_type": "cnn", "pred_class": 0, "severe_prob": 6.082458709595401e-29, "timestamp": "2024-03-01T13:30:00+00:00", "step": 3}}, {"type": "Feature", "geometry": {"type": "Point", "coordinates": [-106.872, 39.19466666666666]}, "properties": {"source": "satellite", "model_type": "cnn", "pred_class": 0, "severe_prob": 1.8130349403127942e-28, "timestamp": "2024-03-01T13:30:00+00:00", "step": 3}}, {"type": "Feature", "geometry": {"type": "Point", "coordinates": [-104.376, 39.19466666666666]}, "properties": {"source": "satellite", "model_type": "cnn", "pred_class": 0, "severe_prob": 5.422766796108281e-28, "timestamp": "2024-03-01T13:30:00+00:00", "step": 3}}, {"type": "Feature", "geometry": {"type": "Point", "coordinates": [-101.88, 39.19466666666666]}, "properties": {"source": "satellite", "model_type": "cnn", "pred_class": 0, "severe_prob": 1.641538076928278e-27, "timestamp": "2024-03-01T13:30:00+00:00", "step": 3}}, {"type": "Feature", "geometry": {"type": "Point", "coordinates": [-99.384, 39.19466666666666]}, "properties": {"source": "satellite", "model_type": "cnn", "pred_class": 0, "severe_prob": 5.0512809098902325e-27, "timestamp": "2024-03-01T13:30:00+00:00", "step": 3}}, {"type": "Feature", "geometry": {"type": "Point", "coordinates": [-96.888, 39.19466666666666]}, "properties": {"source": "satellite", "model_type": "cnn", "pred_class": 0, "severe_prob": 1.663850322001394e-26, "timestamp": "2024-03-01T13:30:00+00:00", "step": 3}}, {"type": "Feature", "geometry": {"type": "Point", "coordinates": [-94.392, 39.19466666666666]}, "properties": {"source": "satellite", "model_type": "cnn", "pred_class": 0, "severe_prob": 5.480564916704314e-26, "timestamp": "2024-03-01T13:30:00+00:00", "step": 3}}, {"type": "Feature", "geometry": {"type": "Point", "coordinates": [-91.896, 39.19466666666666]}, "properties": {"source": "satellite", "model_type": "cnn", "pred_class": 0, "severe_prob": 1.919740221250129e-25, "timestamp": "2024-03-01T13:30:00+00:00", "step": 3}}, {"type": "Feature", "geometry": {"type": "Point", "coordinates": [-89.4, 39.19466666666666]}, "properties": {"source": "satellite", "model_type": "cnn", "pred_class": 0, "severe_prob": 6.777079384850424e-25, "timestamp": "2024-03-01T13:30:00+00:00", "step": 3}}, {"type": "Feature", "geometry": {"type": "Point", "coordinates": [-86.904, 39.19466666666666]}, "properties": {"source": "satellite", "model_type": "cnn", "pred_class": 0, "severe_prob": 2.392394244481867e-24, "timestamp": "2024-03-01T13:30:00+00:00", "step": 3}}, {"type": "Feature", "geometry": {"type": "Point", "coordinates": [-84.408, 39.19466666666666]}, "properties": {"source": "satellite", "model_type": "cnn", "pred_class": 0, "severe_prob": 8.44567737992823e-24, "timestamp": "2024-03-01T13:30:00+00:00", "step": 3}}, {"type": "Feature", "geometry": {"type": "Point", "coordinates": [-81.912, 39.19466666666666]}, "properties": {"source": "satellite", "model_type": "cnn", "pred_class": 0, "severe_prob": 2.996869641615778e-23, "timestamp": "2024-03-01T13:30:00+00:00", "step": 3}}, {"type": "Feature", "geometry": {"type": "Point", "coordinates": [-79.416, 39.19466666666666]}, "properties": {"source": "satellite", "model_type": "cnn", "pred_class": 0, "severe_prob": 1.064669396880348e-22, "timestamp": "2024-03-01T13:30:00+00:00", "step": 3}}, {"type": "Feature", "geometry": {"type": "Point", "coordinates": [-76.92, 39.19466666666666]}, "properties": {"source": "satellite", "model_type": "cnn", "pred_class": 0, "severe_prob": 3.916059266730312e-22, "timestamp": "2024-03-01T13:30:00+00:00", "step": 3}}, {"type": "Feature", "geometry": {"type": "Point", "coordinates": [-74.424, 39.19466666666666]}, "properties": {"source": "satellite", "model_type": "cnn", "pred_class": 0, "severe_prob": 1.628004536603731e-21, "timestamp": "2024-03-01T13:30:00+00:00", "step": 3}}, {"type": "Feature", "geometry": {"type": "Point", "coordinates": [-71.928, 39.19466666666666]}, "properties": {"source": "satellite", "model_type": "cnn", "pred_class": 0, "severe_prob": 7.365478707081416e-21, "timestamp": "2024-03-01T13:30:00+00:00", "step": 3}}, {"type": "Feature", "geometry": {"type": "Point", "coordinates": [-69.432, 39.19466666666666]}, "properties": {"source": "satellite", "model_type": "cnn", "pred_class": 0, "severe_prob": 3.5321103294502985e-20, "timestamp": "2024-03-01T13:30:00+00:00", "step": 3}}, {"type": "Feature", "geometry": {"type": "Point", "coordinates": [-129.336, 41.178666666666665]}, "properties": {"source": "satellite", "model_type": "cnn", "pred_class": 0, "severe_prob": 1.633063792074517e-33, "timestamp": "2024-03-01T13:30:00+00:00", "step": 3}}, {"type": "Feature", "geometry": {"type": "Point", "coordinates": [-126.84, 41.178666666666665]}, "properties": {"source": "satellite", "model_type": "cnn", "pred_class": 0, "severe_prob": 6.392416890956311e-33, "timestamp": "2024-03-01T13:30:00+00:00", "step": 3}}, {"type": "Feature", "geometry": {"type": "Point", "coordinates": [-124.344, 41.178666666666665]}, "properties": {"source": "satellite", "model_type": "cnn", "pred_class": 0, "severe_prob": 2.502248082098922e-32, "timestamp": "2024-03-01T13:30:00+00:00", "step": 3}}, {"type": "Feature", "geometry": {"type": "Point", "coordinates": [-121.848, 41.178666666666665]}, "properties": {"source": "satellite", "model_type": "cnn", "pred_class": 0, "severe_prob": 8.715465414312985e-32, "timestamp": "2024-03-01T13:30:00+00:00", "step": 3}}, {"type": "Feature", "geometry": {"type": "Point", "coordinates": [-119.352, 41.178666666666665]}, "properties": {"source": "satellite", "model_type": "cnn", "pred_class": 0, "severe_prob": 2.8633655302696953e-31, "timestamp": "2024-03-01T13:30:00+00:00", "step": 3}}, {"type": "Feature", "geometry": {"type": "Point", "coordinates": [-116.856, 41.178666666666665]}, "properties": {"source": "satellite", "model_type": "cnn", "pred_class": 0, "severe_prob": 9.406968774093808e-31, "timestamp": "2024-03-01T13:30:00+00:00", "step": 3}}, {"type": "Feature", "geometry": {"type": "Point", "coordinates": [-114.36, 41.178666666666665]}, "properties": {"source": "satellite", "model_type": "cnn", "pred_class": 0, "severe_prob": 2.861499691596522e-30, "timestamp": "2024-03-01T13:30:00+00:00", "step": 3}}, {"type": "Feature", "geometry": {"type": "Point", "coordinates": [-111.864, 41.178666666666665]}, "properties": {"source": "satellite", "model_type": "cnn", "pred_class": 0, "severe_prob": 8.529314034877219e-30, "timestamp": "2024-03-01T13:30:00+00:00", "step": 3}}, {"type": "Feature", "geometry": {"type": "Point", "coordinates": [-109.368, 41.178666666666665]}, "properties": {"source": "satellite", "model_type": "cnn", "pred_class": 0, "severe_prob": 2.557226909739282e-29, "timestamp": "2024-03-01T13:30:00+00:00", "step": 3}}, {"type": "Feature", "geometry": {"type": "Point", "coordinates": [-106.872, 41.178666666666665]}, "properties": {"source": "satellite", "model_type": "cnn", "pred_class": 0, "severe_prob": 7.74098050344176e-29, "timestamp": "2024-03-01T13:30:00+00:00", "step": 3}}, {"type": "Feature", "geometry": {"type": "Point", "coordinates": [-104.376, 41.178666666666665]}, "properties": {"source": "satellite", "model_type": "cnn", "pred_class": 0, "severe_prob": 2.3939959210089572e-28, "timestamp": "2024-03-01T13:30:00+00:00", "step": 3}}, {"type": "Feature", "geometry": {"type": "Point", "coordinates": [-101.88, 41.178666666666665]}, "properties": {"source": "satellite", "model_type": "cnn", "pred_class": 0, "severe_prob": 7.885685972037024e-28, "timestamp": "2024-03-01T13:30:00+00:00", "step": 3}}, {"type": "Feature", "geometry": {"type": "Point", "coordinates": [-99.384, 41.178666666666665]}, "properties": {"source": "satellite", "model_type": "cnn", "pred_class": 0, "severe_prob": 2.597470130743977e-27, "timestamp": "2024-03-01T13:30:00+00:00", "step": 3}}, {"type": "Feature", "geometry": {"type": "Point", "coordinates": [-96.888, 41.178666666666665]}, "properties": {"source": "satellite", "model_type": "cnn", "pred_class": 0, "severe_prob": 9.061255410053019e-27, "timestamp": "2024-03-01T13:30:00+00:00", "step": 3}}, {"type": "Feature", "geometry": {"type": "Point", "coordinates": [-94.392, 41.178666666666665]}, "properties": {"source": "satellite", "model_type": "cnn", "pred_class": 0, "severe_prob": 3.198871338162837e-26, "timestamp": "2024-03-01T13:30:00+00:00", "step": 3}}, {"type": "Feature", "geometry": {"type": "Point", "coordinates": [-91.896, 41.178666666666665]}, "properties": {"source": "satellite", "model_type": "cnn", "pred_class": 0, "severe_prob": 1.1292633837685786e-25, "timestamp": "2024-03-01T13:30:00+00:00", "step": 3}}, {"type": "Feature", "geometry": {"type": "Point", "coordinates": [-89.4, 41.178666666666665]}, "properties": {"source": "satellite", "model_type": "cnn", "pred_class": 0, "severe_prob": 3.986365356976279e-25, "timestamp": "2024-03-01T13:30:00+00:00", "step": 3}}, {"type": "Feature", "geometry": {"type": "Point", "coordinates": [-86.904, 41.178666666666665]}, "properties": {"source": "satellite", "model_type": "cnn", "pred_class": 0, "severe_prob": 1.4123622666037924e-24, "timestamp": "2024-03-01T13:30:00+00:00", "step": 3}}, {"type": "Feature", "geometry": {"type": "Point", "coordinates": [-84.408, 41.178666666666665]}, "properties": {"source": "satellite", "model_type": "cnn", "pred_class": 0, "severe_prob": 5.017661017045882e-24, "timestamp": "2024-03-01T13:30:00+00:00", "step": 3}}, {"type": "Feature", "geometry": {"type": "Point", "coordinates": [-81.912, 41.178666666666665]}, "properties": {"source": "satellite", "model_type": "cnn", "pred_class": 0, "severe_prob": 1.789287205474152e-23, "timestamp": "2024-03-01T13:30:00+00:00", "step": 3}}, {"type": "Feature", "geometry": {"type": "Point", "coordinates": [-79.416, 41.178666666666665]}, "properties": {"source": "satellite", "model_type": "cnn", "pred_class": 0, "severe_prob": 7.059162200048571e-23, "timestamp": "2024-03-01T13:30:00+00:00", "step": 3}}, {"type": "Feature", "geometry": {"type": "Point", "coordinates": [-76.92, 41.178666666666665]}, "properties": {"source": "satellite", "model_type": "cnn", "pred_class": 0, "severe_prob": 3.064197026610219e-22, "timestamp": "2024-03-01T13:30:00+00:00", "step": 3}}, {"type": "Feature", "geometry": {"type": "Point", "coordinates": [-74.424, 41.178666666666665]}, "properties": {"source": "satellite", "model_type": "cnn", "pred_class": 0, "severe_prob": 1.4579371316254304e-21, "timestamp": "2024-03-01T13:30:00+00:00", "step": 3}}, {"type": "Feature", "geometry": {"type": "Point", "coordinates": [-71.928, 41.178666666666665]}, "properties": {"source": "satellite", "model_type": "cnn", "pred_class": 0, "severe_prob": 6.997157152296574e-21, "timestamp": "2024-03-01T13:30:00+00:00", "step": 3}}, {"type": "Feature", "geometry": {"type": "Point", "coordinates": [-69.432, 41.178666666666665]}, "properties": {"source": "satellite", "model_type": "cnn", "pred_class": 0, "severe_prob": 3.369064952780427e-20, "timestamp": "2024-03-01T13:30:00+00:00", "step": 3}}, {"type": "Feature", "geometry": {"type": "Point", "coordinates": [-129.336, 43.16266666666667]}, "properties": {"source": "satellite", "model_type": "cnn", "pred_class": 0, "severe_prob": 1.2574457761997864e-33, "timestamp": "2024-03-01T13:30:00+00:00", "step": 3}}, {"type": "Feature", "geometry": {"type": "Point", "coordinates": [-126.84, 43.16266666666667]}, "properties": {"source": "satellite", "model_type": "cnn", "pred_class": 0, "severe_prob": 4.189595578813039e-33, "timestamp": "2024-03-01T13:30:00+00:00", "step": 3}}, {"type": "Feature", "geometry": {"type": "Point", "coordinates": [-124.344, 43.16266666666667]}, "properties": {"source": "satellite", "model_type": "cnn", "pred_class": 0, "severe_prob": 1.3764011759939956e-32, "timestamp": "2024-03-01T13:30:00+00:00", "step": 3}}, {"type": "Feature", "geometry": {"type": "Point", "coordinates": [-121.848, 43.16266666666667]}, "properties": {"source": "satellite", "model_type": "cnn", "pred_class": 0, "severe_prob": 4.516352445488513e-32, "timestamp": "2024-03-01T13:30:00+00:00", "step": 3}}, {"type": "Feature", "geometry": {"type": "Point", "coordinates": [-119.352, 43.16266666666667]}, "properties": {"source": "satellite", "model_type": "cnn", "pred_class": 0, "severe_prob": 1.346175190166203e-31, "timestamp": "2024-03-01T13:30:00+00:00", "step": 3}}, {"type": "Feature", "geometry": {"type": "Point", "coordinates": [-116.856, 43.16266666666667]}, "properties": {"source": "satellite", "model_type": "cnn", "pred_class": 0, "severe_prob": 4.012686794074314e-31, "timestamp": "2024-03-01T13:30:00+00:00", "step": 3}}, {"type": "Feature", "geometry": {"type": "Point", "coordinates": [-114.36, 43.16266666666667]}, "properties": {"source": "satellite", "model_type": "cnn", "pred_class": 0, "severe_prob": 1.2059082452995308e-30, "timestamp": "2024-03-01T13:30:00+00:00", "step": 3}}, {"type": "Feature", "geometry": {"type": "Point", "coordinates": [-111.864, 43.16266666666667]}, "properties": {"source": "satellite", "model_type": "cnn", "pred_class": 0, "severe_prob": 3.655058436480708e-30, "timestamp": "2024-03-01T13:30:00+00:00", "step": 3}}, {"type": "Feature", "geometry": {"type": "Point", "coordinates": [-109.368, 43.16266666666667]}, "properties": {"source": "satellite", "model_type": "cnn", "pred_class": 0, "severe_prob": 1.1346240109165137e-29, "timestamp": "2024-03-01T13:30:00+00:00", "step": 3}}, {"type": "Feature", "geometry": {"type": "Point", "coordinates": [-106.872, 43.16266666666667]}, "properties": {"source": "satellite", "model_type": "cnn", "pred_class": 0, "severe_prob": 3.737386524925294e-29, "timestamp": "2024-03-01T13:30:00+00:00", "step": 3}}, {"type": "Feature", "geometry": {"type": "Point", "coordinates": [-104.376, 43.16266666666667]}, "properties": {"source": "satellite", "model_type": "cnn", "pred_class": 0, "severe_prob": 1.231073679751765e-28, "timestamp": "2024-03-01T13:30:00+00:00", "step": 3}}, {"type": "Feature", "geometry": {"type": "Point", "coordinates": [-101.88, 43.16266666666667]}, "properties": {"source": "satellite", "model_type": "cnn", "pred_class": 0, "severe_prob": 4.277065738931313e-28, "timestamp": "2024-03-01T13:30:00+00:00", "step": 3}}, {"type": "Feature", "geometry": {"type": "Point", "coordinates": [-99.384, 43.16266666666667]}, "properties": {"source": "satellite", "model_type": "cnn", "pred_class": 0, "severe_prob": 1.5098693725713169e-27, "timestamp": "2024-03-01T13:30:00+00:00", "step": 3}}, {"type": "Feature", "geometry": {"type": "Point", "coordinates": [-96.888, 43.16266666666667]}, "properties": {"source": "satellite", "model_type": "cnn", "pred_class": 0, "severe_prob": 5.330130528748227e-27, "timestamp": "2024-03-01T13:30:00+00:00", "step": 3}}, {"type": "Feature", "geometry": {"type": "Point", "coordinates": [-94.392, 43.16266666666667]}, "properties": {"source": "satellite", "model_type": "cnn", "pred_class": 0, "severe_prob": 1.88165327718896e-26, "timestamp": "2024-03-01T13:30:00+00:00", "step": 3}}, {"type": "Feature", "geometry": {"type": "Point", "coordinates": [-91.896, 43.16266666666667]}, "properties": {"source": "satellite", "model_type": "cnn", "pred_class": 0, "severe_prob": 6.656271500191648e-26, "timestamp": "2024-03-01T13:30:00+00:00", "step": 3}}, {"type": "Feature", "geometry": {"type": "Point", "coordinates": [-89.4, 43.16266666666667]}, "properties": {"source": "satellite", "model_type": "cnn", "pred_class": 0, "severe_prob": 2.3647461488680677e-25, "timestamp": "2024-03-01T13:30:00+00:00", "step": 3}}, {"type": "Feature", "geometry": {"type": "Point", "coordinates": [-86.904, 43.16266666666667]}, "properties": {"source": "satellite", "model_type": "cnn", "pred_class": 0, "severe_prob": 8.404150361370811e-25, "timestamp": "2024-03-01T13:30:00+00:00", "step": 3}}, {"type": "Feature", "geometry": {"type": "Point", "coordinates": [-84.408, 43.16266666666667]}, "properties": {"source": "satellite", "model_type": "cnn", "pred_class": 0, "severe_prob": 3.1539934973250247e-24, "timestamp": "2024-03-01T13:30:00+00:00", "step": 3}}, {"type": "Feature", "geometry": {"type": "Point", "coordinates": [-81.912, 43.16266666666667]}, "properties": {"source": "satellite", "model_type": "cnn", "pred_class": 0, "severe_prob": 1.3286509703042485e-23, "timestamp": "2024-03-01T13:30:00+00:00", "step": 3}}, {"type": "Feature", "geometry": {"type": "Point", "coordinates": [-79.416, 43.16266666666667]}, "properties": {"source": "satellite", "model_type": "cnn", "pred_class": 0, "severe_prob": 6.01790114612539e-23, "timestamp": "2024-03-01T13:30:00+00:00", "step": 3}}, {"type": "Feature", "geometry": {"type": "Point", "coordinates": [-76.92, 43.16266666666667]}, "properties": {"source": "satellite", "model_type": "cnn", "pred_class": 0, "severe_prob": 2.8858470617545283e-22, "timestamp": "2024-03-01T13:30:00+00:00", "step": 3}}, {"type": "Feature", "geometry": {"type": "Point", "coordinates": [-74.424, 43.16266666666667]}, "properties": {"source": "satellite", "model_type": "cnn", "pred_class": 0, "severe_prob": 1.3874529019931379e-21, "timestamp": "2024-03-01T13:30:00+00:00", "step": 3}}, {"type": "Feature", "geometry": {"type": "Point", "coordinates": [-71.928, 43.16266666666667]}, "properties": {"source": "satellite", "model_type": "cnn", "pred_class": 0, "severe_prob": 6.680403119341667e-21, "timestamp": "2024-03-01T13:30:00+00:00", "step": 3}}, {"type": "Feature", "geometry": {"type": "Point", "coordinates": [-69.432, 43.16266666666667]}, "properties": {"source": "satellite", "model_type": "cnn", "pred_class": 0, "severe_prob": 3.2164769485108163e-20, "timestamp": "2024-03-01T13:30:00+00:00", "step": 3}}, {"type": "Feature", "geometry": {"type": "Point", "coordinates": [-129.336, 45.14666666666667]}, "properties": {"source": "satellite", "model_type": "cnn", "pred_class": 0, "severe_prob": 6.616372350181461e-34, "timestamp": "2024-03-01T13:30:00+00:00", "step": 3}}, {"type": "Feature", "geometry": {"type": "Point", "coordinates": [-126.84, 45.14666666666667]}, "properties": {"source": "satellite", "model_type": "cnn", "pred_class": 0, "severe_prob": 2.124739283560894e-33, "timestamp": "2024-03-01T13:30:00+00:00", "step": 3}}, {"type": "Feature", "geometry": {"type": "Point", "coordinates": [-124.344, 45.14666666666667]}, "properties": {"source": "satellite", "model_type": "cnn", "pred_class": 0, "severe_prob": 6.333144792368005e-33, "timestamp": "2024-03-01T13:30:00+00:00", "step": 3}}, {"type": "Feature", "geometry": {"type": "Point", "coordinates": [-121.848, 45.14666666666667]}, "properties": {"source": "satellite", "model_type": "cnn", "pred_class": 0, "severe_prob": 1.8877585571433653e-32, "timestamp": "2024-03-01T13:30:00+00:00", "step": 3}}, {"type": "Feature", "geometry": {"type": "Point", "coordinates": [-119.352, 45.14666666666667]}, "properties": {"source": "satellite", "model_type": "cnn", "pred_class": 0, "severe_prob": 5.686729575528084e-32, "timestamp": "2024-03-01T13:30:00+00:00", "step": 3}}, {"type": "Feature", "geometry": {"type": "Point", "coordinates": [-116.856, 45.14666666666667]}, "properties": {"source": "satellite", "model_type": "cnn", "pred_class": 0, "severe_prob": 1.7264144637165198e-31, "timestamp": "2024-03-01T13:30:00+00:00", "step": 3}}, {"type": "Feature", "geometry": {"type": "Point", "coordinates": [-114.36, 45.14666666666667]}, "properties": {"source": "satellite", "model_type": "cnn", "pred_class": 0, "severe_prob": 5.377542000068304e-31, "timestamp": "2024-03-01T13:30:00+00:00", "step": 3}}, {"type": "Feature", "geometry": {"type": "Point", "coordinates": [-111.864, 45.14666666666667]}, "properties": {"source": "satellite", "model_type": "cnn", "pred_class": 0, "severe_prob": 1.7713044770845915e-30, "timestamp": "2024-03-01T13:30:00+00:00", "step": 3}}, {"type": "Feature", "geometry": {"type": "Point", "coordinates": [-109.368, 45.14666666666667]}, "properties": {"source": "satellite", "model_type": "cnn", "pred_class": 0, "severe_prob": 5.83453141567364e-30, "timestamp": "2024-03-01T13:30:00+00:00", "step": 3}}, {"type": "Feature", "geometry": {"type": "Point", "coordinates": [-106.872, 45.14666666666667]}, "properties": {"source": "satellite", "model_type": "cnn", "pred_class": 0, "severe_prob": 2.0188008441812958e-29, "timestamp": "2024-03-01T13:30:00+00:00", "step": 3}}, {"type": "Feature", "geometry": {"type": "Point", "coordinates": [-104.376, 45.14666666666667]}, "properties": {"source": "satellite", "model_type": "cnn", "pred_class": 0, "severe_prob": 7.126702138413913e-29, "timestamp": "2024-03-01T13:30:00+00:00", "step": 3}}, {"type": "Feature", "geometry": {"type": "Point", "coordinates": [-101.88, 45.14666666666667]}, "properties": {"source": "satellite", "model_type": "cnn", "pred_class": 0, "severe_prob": 2.5158731012321564e-28, "timestamp": "2024-03-01T13:30:00+00:00", "step": 3}}, {"type": "Feature", "geometry": {"type": "Point", "coordinates": [-99.384, 45.14666666666667]}, "properties": {"source": "satellite", "model_type": "cnn", "pred_class": 0, "severe_prob": 8.88158482776215e-28, "timestamp": "2024-03-01T13:30:00+00:00", "step": 3}}, {"type": "Feature", "geometry": {"type": "Point", "coordinates": [-96.888, 45.14666666666667]}, "properties": {"source": "satellite", "model_type": "cnn", "pred_class": 0, "severe_prob": 3.137057923262949e-27, "timestamp": "2024-03-01T13:30:00+00:00", "step": 3}}, {"type": "Feature", "geometry": {"type": "Point", "coordinates": [-94.392, 45.14666666666667]}, "properties": {"source": "satellite", "model_type": "cnn", "pred_class": 0, "severe_prob": 1.1144811935180661e-26, "timestamp": "2024-03-01T13:30:00+00:00", "step": 3}}, {"type": "Feature", "geometry": {"type": "Point", "coordinates": [-91.896, 45.14666666666667]}, "properties": {"source": "satellite", "model_type": "cnn", "pred_class": 0, "severe_prob": 3.9593267796712795e-26, "timestamp": "2024-03-01T13:30:00+00:00", "step": 3}}, {"type": "Feature", "geometry": {"type": "Point", "coordinates": [-89.4, 45.14666666666667]}, "properties": {"source": "satellite", "model_type": "cnn", "pred_class": 0, "severe_prob": 1.4298661040145151e-25, "timestamp": "2024-03-01T13:30:00+00:00", "step": 3}}, {"type": "Feature", "geometry": {"type": "Point", "coordinates": [-86.904, 45.14666666666667]}, "properties": {"source": "satellite", "model_type": "cnn", "pred_class": 0, "severe_prob": 5.761162617431912e-25, "timestamp": "2024-03-01T13:30:00+00:00", "step": 3}}, {"type": "Feature", "geometry": {"type": "Point", "coordinates": [-84.408, 45.14666666666667]}, "properties": {"source": "satellite", "model_type": "cnn", "pred_class": 0, "severe_prob": 2.5007123409473114e-24, "timestamp": "2024-03-01T13:30:00+00:00", "step": 3}}, {"type": "Feature", "geometry": {"type": "Point", "coordinates": [-81.912, 45.14666666666667]}, "properties": {"source": "satellite", "model_type": "cnn", "pred_class": 0, "severe_prob": 1.1911859622266075e-23, "timestamp": "2024-03-01T13:30:00+00:00", "step": 3}}, {"type": "Feature", "geometry": {"type": "Point", "coordinates": [-79.416, 45.14666666666667]}, "properties": {"source": "satellite", "model_type": "cnn", "pred_class": 0, "severe_prob": 5.713915174020283e-23, "timestamp": "2024-03-01T13:30:00+00:00", "step": 3}}, {"type": "Feature", "geometry": {"type": "Point", "coordinates": [-76.92, 45.14666666666667]}, "properties": {"source": "satellite", "model_type": "cnn", "pred_class": 0, "severe_prob": 2.751122240917263e-22, "timestamp": "2024-03-01T13:30:00+00:00", "step": 3}}, {"type": "Feature", "geometry": {"type": "Point", "coordinates": [-74.424, 45.14666666666667]}, "properties": {"source": "satellite", "model_type": "cnn", "pred_class": 0, "severe_prob": 1.3246290797303931e-21, "timestamp": "2024-03-01T13:30:00+00:00", "step": 3}}, {"type": "Feature", "geometry": {"type": "Point", "coordinates": [-71.928, 45.14666666666667]}, "properties": {"source": "satellite", "model_type": "cnn", "pred_class": 0, "severe_prob": 6.377841615461223e-21, "timestamp": "2024-03-01T13:30:00+00:00", "step": 3}}, {"type": "Feature", "geometry": {"type": "Point", "coordinates": [-69.432, 45.14666666666667]}, "properties": {"source": "satellite", "model_type": "cnn", "pred_class": 0, "severe_prob": 3.070823367337299e-20, "timestamp": "2024-03-01T13:30:00+00:00", "step": 3}}, {"type": "Feature", "geometry": {"type": "Point", "coordinates": [-129.336, 47.13066666666667]}, "properties": {"source": "satellite", "model_type": "cnn", "pred_class": 0, "severe_prob": 2.979458031939576e-34, "timestamp": "2024-03-01T13:30:00+00:00", "step": 3}}, {"type": "Feature", "geometry": {"type": "Point", "coordinates": [-126.84, 47.13066666666667]}, "properties": {"source": "satellite", "model_type": "cnn", "pred_class": 0, "severe_prob": 8.880779005225763e-34, "timestamp": "2024-03-01T13:30:00+00:00", "step": 3}}, {"type": "Feature", "geometry": {"type": "Point", "coordinates": [-124.344, 47.13066666666667]}, "properties": {"source": "satellite", "model_type": "cnn", "pred_class": 0, "severe_prob": 2.6817041190148405e-33, "timestamp": "2024-03-01T13:30:00+00:00", "step": 3}}, {"type": "Feature", "geometry": {"type": "Point", "coordinates": [-121.848, 47.13066666666667]}, "properties": {"source": "satellite", "model_type": "cnn", "pred_class": 0, "severe_prob": 8.154471902579381e-33, "timestamp": "2024-03-01T13:30:00+00:00", "step": 3}}, {"type": "Feature", "geometry": {"type": "Point", "coordinates": [-119.352, 47.13066666666667]}, "properties": {"source": "satellite", "model_type": "cnn", "pred_class": 0, "severe_prob": 2.548701561728305e-32, "timestamp": "2024-03-01T13:30:00+00:00", "step": 3}}, {"type": "Feature", "geometry": {"type": "Point", "coordinates": [-116.856, 47.13066666666667]}, "properties": {"source": "satellite", "model_type": "cnn", "pred_class": 0, "severe_prob": 8.395020952301426e-32, "timestamp": "2024-03-01T13:30:00+00:00", "step": 3}}, {"type": "Feature", "geometry": {"type": "Point", "coordinates": [-114.36, 47.13066666666667]}, "properties": {"source": "satellite", "model_type": "cnn", "pred_class": 0, "severe_prob": 2.7652505432896115e-31, "timestamp": "2024-03-01T13:30:00+00:00", "step": 3}}, {"type": "Feature", "geometry": {"type": "Point", "coordinates": [-111.864, 47.13066666666667]}, "properties": {"source": "satellite", "model_type": "cnn", "pred_class": 0, "severe_prob": 9.52882616087293e-31, "timestamp": "2024-03-01T13:30:00+00:00", "step": 3}}, {"type": "Feature", "geometry": {"type": "Point", "coordinates": [-109.368, 47.13066666666667]}, "properties": {"source": "satellite", "model_type": "cnn", "pred_class": 0, "severe_prob": 3.363885288437393e-30, "timestamp": "2024-03-01T13:30:00+00:00", "step": 3}}, {"type": "Feature", "geometry": {"type": "Point", "coordinates": [-106.872, 47.13066666666667]}, "properties": {"source": "satellite", "model_type": "cnn", "pred_class": 0, "severe_prob": 1.1875163666470172e-29, "timestamp": "2024-03-01T13:30:00+00:00", "step": 3}}, {"type": "Feature", "geometry": {"type": "Point", "coordinates": [-104.376, 47.13066666666667]}, "properties": {"source": "satellite", "model_type": "cnn", "pred_class": 0, "severe_prob": 4.1921620802979743e-29, "timestamp": "2024-03-01T13:30:00+00:00", "step": 3}}, {"type": "Feature", "geometry": {"type": "Point", "coordinates": [-101.88, 47.13066666666667]}, "properties": {"source": "satellite", "model_type": "cnn", "pred_class": 0, "severe_prob": 1.4799028656016237e-28, "timestamp": "2024-03-01T13:30:00+00:00", "step": 3}}, {"type": "Feature", "geometry": {"type": "Point", "coordinates": [-99.384, 47.13066666666667]}, "properties": {"source": "satellite", "model_type": "cnn", "pred_class": 0, "severe_prob": 5.252318144170122e-28, "timestamp": "2024-03-01T13:30:00+00:00", "step": 3}}, {"type": "Feature", "geometry": {"type": "Point", "coordinates": [-96.888, 47.13066666666667]}, "properties": {"source": "satellite", "model_type": "cnn", "pred_class": 0, "severe_prob": 1.8659838341242276e-27, "timestamp": "2024-03-01T13:30:00+00:00", "step": 3}}, {"type": "Feature", "geometry": {"type": "Point", "coordinates": [-94.392, 47.13066666666667]}, "properties": {"source": "satellite", "model_type": "cnn", "pred_class": 0, "severe_prob": 6.642215755308719e-27, "timestamp": "2024-03-01T13:30:00+00:00", "step": 3}}, {"type": "Feature", "geometry": {"type": "Point", "coordinates": [-91.896, 47.13066666666667]}, "properties": {"source": "satellite", "model_type": "cnn", "pred_class": 0, "severe_prob": 2.5402259461185486e-26, "timestamp": "2024-03-01T13:30:00+00:00", "step": 3}}, {"type": "Feature", "geometry": {"type": "Point", "coordinates": [-89.4, 47.13066666666667]}, "properties": {"source": "satellite", "model_type": "cnn", "pred_class": 0, "severe_prob": 1.084337755216242e-25, "timestamp": "2024-03-01T13:30:00+00:00", "step": 3}}, {"type": "Feature", "geometry": {"type": "Point", "coordinates": [-86.904, 47.13066666666667]}, "properties": {"source": "satellite", "model_type": "cnn", "pred_class": 0, "severe_prob": 4.916761467140749e-25, "timestamp": "2024-03-01T13:30:00+00:00", "step": 3}}, {"type": "Feature", "geometry": {"type": "Point", "coordinates": [-84.408, 47.13066666666667]}, "properties": {"source": "satellite", "model_type": "cnn", "pred_class": 0, "severe_prob": 2.3578567307599332e-24, "timestamp": "2024-03-01T13:30:00+00:00", "step": 3}}, {"type": "Feature", "geometry": {"type": "Point", "coordinates": [-81.912, 47.13066666666667]}, "properties": {"source": "satellite", "model_type": "cnn", "pred_class": 0, "severe_prob": 1.1329968997304279e-23, "timestamp": "2024-03-01T13:30:00+00:00", "step": 3}}, {"type": "Feature", "geometry": {"type": "Point", "coordinates": [-79.416, 47.13066666666667]}, "properties": {"source": "satellite", "model_type": "cnn", "pred_class": 0, "severe_prob": 5.455001558595885e-23, "timestamp": "2024-03-01T13:30:00+00:00", "step": 3}}, {"type": "Feature", "geometry": {"type": "Point", "coordinates": [-76.92, 47.13066666666667]}, "properties": {"source": "satellite", "model_type": "cnn", "pred_class": 0, "severe_prob": 2.6265715800556866e-22, "timestamp": "2024-03-01T13:30:00+00:00", "step": 3}}, {"type": "Feature", "geometry": {"type": "Point", "coordinates": [-74.424, 47.13066666666667]}, "properties": {"source": "satellite", "model_type": "cnn", "pred_class": 0, "severe_prob": 1.2646307174164349e-21, "timestamp": "2024-03-01T13:30:00+00:00", "step": 3}}, {"type": "Feature", "geometry": {"type": "Point", "coordinates": [-71.928, 47.13066666666667]}, "properties": {"source": "satellite", "model_type": "cnn", "pred_class": 0, "severe_prob": 6.089053395793998e-21, "timestamp": "2024-03-01T13:30:00+00:00", "step": 3}}, {"type": "Feature", "geometry": {"type": "Point", "coordinates": [-69.432, 47.13066666666667]}, "properties": {"source": "satellite", "model_type": "cnn", "pred_class": 0, "severe_prob": 2.7396154033096653e-20, "timestamp": "2024-03-01T13:30:00+00:00", "step": 3}}, {"type": "Feature", "geometry": {"type": "Point", "coordinates": [-129.336, 49.114666666666665]}, "properties": {"source": "satellite", "model_type": "cnn", "pred_class": 0, "severe_prob": 1.2645982001470593e-34, "timestamp": "2024-03-01T13:30:00+00:00", "step": 3}}, {"type": "Feature", "geometry": {"type": "Point", "coordinates": [-126.84, 49.114666666666665]}, "properties": {"source": "satellite", "model_type": "cnn", "pred_class": 0, "severe_prob": 3.851530428932005e-34, "timestamp": "2024-03-01T13:30:00+00:00", "step": 3}}, {"type": "Feature", "geometry": {"type": "Point", "coordinates": [-124.344, 49.114666666666665]}, "properties": {"source": "satellite", "model_type": "cnn", "pred_class": 0, "severe_prob": 1.2079183421088048e-33, "timestamp": "2024-03-01T13:30:00+00:00", "step": 3}}, {"type": "Feature", "geometry": {"type": "Point", "coordinates": [-121.848, 49.114666666666665]}, "properties": {"source": "satellite", "model_type": "cnn", "pred_class": 0, "severe_prob": 3.9788136460052634e-33, "timestamp": "2024-03-01T13:30:00+00:00", "step": 3}}, {"type": "Feature", "geometry": {"type": "Point", "coordinates": [-119.352, 49.114666666666665]}, "properties": {"source": "satellite", "model_type": "cnn", "pred_class": 0, "severe_prob": 1.3105784881989385e-32, "timestamp": "2024-03-01T13:30:00+00:00", "step": 3}}, {"type": "Feature", "geometry": {"type": "Point", "coordinates": [-116.856, 49.114666666666665]}, "properties": {"source": "satellite", "model_type": "cnn", "pred_class": 0, "severe_prob": 4.4977493657659874e-32, "timestamp": "2024-03-01T13:30:00+00:00", "step": 3}}, {"type": "Feature", "geometry": {"type": "Point", "coordinates": [-114.36, 49.114666666666665]}, "properties": {"source": "satellite", "model_type": "cnn", "pred_class": 0, "severe_prob": 1.5877681964212133e-31, "timestamp": "2024-03-01T13:30:00+00:00", "step": 3}}, {"type": "Feature", "geometry": {"type": "Point", "coordinates": [-111.864, 49.114666666666665]}, "properties": {"source": "satellite", "model_type": "cnn", "pred_class": 0, "severe_prob": 5.6050424747490465e-31, "timestamp": "2024-03-01T13:30:00+00:00", "step": 3}}, {"type": "Feature", "geometry": {"type": "Point", "coordinates": [-109.368, 49.114666666666665]}, "properties": {"source": "satellite", "model_type": "cnn", "pred_class": 0, "severe_prob": 1.9787335267843653e-30, "timestamp": "2024-03-01T13:30:00+00:00", "step": 3}}, {"type": "Feature", "geometry": {"type": "Point", "coordinates": [-106.872, 49.114666666666665]}, "properties": {"source": "satellite", "model_type": "cnn", "pred_class": 0, "severe_prob": 6.985311044789663e-30, "timestamp": "2024-03-01T13:30:00+00:00", "step": 3}}, {"type": "Feature", "geometry": {"type": "Point", "coordinates": [-104.376, 49.114666666666665]}, "properties": {"source": "satellite", "model_type": "cnn", "pred_class": 0, "severe_prob": 2.475355477340104e-29, "timestamp": "2024-03-01T13:30:00+00:00", "step": 3}}, {"type": "Feature", "geometry": {"type": "Point", "coordinates": [-101.88, 49.114666666666665]}, "properties": {"source": "satellite", "model_type": "cnn", "pred_class": 0, "severe_prob": 8.794060941439472e-29, "timestamp": "2024-03-01T13:30:00+00:00", "step": 3}}, {"type": "Feature", "geometry": {"type": "Point", "coordinates": [-99.384, 49.114666666666665]}, "properties": {"source": "satellite", "model_type": "cnn", "pred_class": 0, "severe_prob": 3.124218037213211e-28, "timestamp": "2024-03-01T13:30:00+00:00", "step": 3}}, {"type": "Feature", "geometry": {"type": "Point", "coordinates": [-96.888, 49.114666666666665]}, "properties": {"source": "satellite", "model_type": "cnn", "pred_class": 0, "severe_prob": 1.151622713976975e-27, "timestamp": "2024-03-01T13:30:00+00:00", "step": 3}}, {"type": "Feature", "geometry": {"type": "Point", "coordinates": [-94.392, 49.114666666666665]}, "properties": {"source": "satellite", "model_type": "cnn", "pred_class": 0, "severe_prob": 4.7016888026869836e-27, "timestamp": "2024-03-01T13:30:00+00:00", "step": 3}}, {"type": "Feature", "geometry": {"type": "Point", "coordinates": [-91.896, 49.114666666666665]}, "properties": {"source": "satellite", "model_type": "cnn", "pred_class": 0, "severe_prob": 2.0408953279667187e-26, "timestamp": "2024-03-01T13:30:00+00:00", "step": 3}}, {"type": "Feature", "geometry": {"type": "Point", "coordinates": [-89.4, 49.114666666666665]}, "properties": {"source": "satellite", "model_type": "cnn", "pred_class": 0, "severe_prob": 9.732333527297502e-26, "timestamp": "2024-03-01T13:30:00+00:00", "step": 3}}, {"type": "Feature", "geometry": {"type": "Point", "coordinates": [-86.904, 49.114666666666665]}, "properties": {"source": "satellite", "model_type": "cnn", "pred_class": 0, "severe_prob": 4.667133829254546e-25, "timestamp": "2024-03-01T13:30:00+00:00", "step": 3}}, {"type": "Feature", "geometry": {"type": "Point", "coordinates": [-84.408, 49.114666666666665]}, "properties": {"source": "satellite", "model_type": "cnn", "pred_class": 0, "severe_prob": 2.246572122860405e-24, "timestamp": "2024-03-01T13:30:00+00:00", "step": 3}}, {"type": "Feature", "geometry": {"type": "Point", "coordinates": [-81.912, 49.114666666666665]}, "properties": {"source": "satellite", "model_type": "cnn", "pred_class": 0, "severe_prob": 1.0816700593626754e-23, "timestamp": "2024-03-01T13:30:00+00:00", "step": 3}}, {"type": "Feature", "geometry": {"type": "Point", "coordinates": [-79.416, 49.114666666666665]}, "properties": {"source": "satellite", "model_type": "cnn", "pred_class": 0, "severe_prob": 5.208138582359642e-23, "timestamp": "2024-03-01T13:30:00+00:00", "step": 3}}, {"type": "Feature", "geometry": {"type": "Point", "coordinates": [-76.92, 49.114666666666665]}, "properties": {"source": "satellite", "model_type": "cnn", "pred_class": 0, "severe_prob": 2.5076502306137673e-22, "timestamp": "2024-03-01T13:30:00+00:00", "step": 3}}, {"type": "Feature", "geometry": {"type": "Point", "coordinates": [-74.424, 49.114666666666665]}, "properties": {"source": "satellite", "model_type": "cnn", "pred_class": 0, "severe_prob": 1.2201612776592567e-21, "timestamp": "2024-03-01T13:30:00+00:00", "step": 3}}, {"type": "Feature", "geometry": {"type": "Point", "coordinates": [-71.928, 49.114666666666665]}, "properties": {"source": "satellite", "model_type": "cnn", "pred_class": 0, "severe_prob": 5.4607951802757684e-21, "timestamp": "2024-03-01T13:30:00+00:00", "step": 3}}, {"type": "Feature", "geometry": {"type": "Point", "coordinates": [-69.432, 49.114666666666665]}, "properties": {"source": "satellite", "model_type": "cnn", "pred_class": 0, "severe_prob": 2.5892287980686964e-20, "timestamp": "2024-03-01T13:30:00+00:00", "step": 3}}, {"type": "Feature", "geometry": {"type": "Point", "coordinates": [-129.336, 51.09866666666667]}, "properties": {"source": "satellite", "model_type": "cnn", "pred_class": 0, "severe_prob": 5.724876171779766e-35, "timestamp": "2024-03-01T13:30:00+00:00", "step": 3}}, {"type": "Feature", "geometry": {"type": "Point", "coordinates": [-126.84, 51.09866666666667]}, "properties": {"source": "satellite", "model_type": "cnn", "pred_class": 0, "severe_prob": 1.8856983058472325e-34, "timestamp": "2024-03-01T13:30:00+00:00", "step": 3}}, {"type": "Feature", "geometry": {"type": "Point", "coordinates": [-124.344, 51.09866666666667]}, "properties": {"source": "satellite", "model_type": "cnn", "pred_class": 0, "severe_prob": 6.211524289741092e-34, "timestamp": "2024-03-01T13:30:00+00:00", "step": 3}}, {"type": "Feature", "geometry": {"type": "Point", "coordinates": [-121.848, 51.09866666666667]}, "properties": {"source": "satellite", "model_type": "cnn", "pred_class": 0, "severe_prob": 2.1229569402514596e-33, "timestamp": "2024-03-01T13:30:00+00:00", "step": 3}}, {"type": "Feature", "geometry": {"type": "Point", "coordinates": [-119.352, 51.09866666666667]}, "properties": {"source": "satellite", "model_type": "cnn", "pred_class": 0, "severe_prob": 7.494619169004829e-33, "timestamp": "2024-03-01T13:30:00+00:00", "step": 3}}, {"type": "Feature", "geometry": {"type": "Point", "coordinates": [-116.856, 51.09866666666667]}, "properties": {"source": "satellite", "model_type": "cnn", "pred_class": 0, "severe_prob": 2.6456442869670314e-32, "timestamp": "2024-03-01T13:30:00+00:00", "step": 3}}, {"type": "Feature", "geometry": {"type": "Point", "coordinates": [-114.36, 51.09866666666667]}, "properties": {"source": "satellite", "model_type": "cnn", "pred_class": 0, "severe_prob": 9.339777517000806e-32, "timestamp": "2024-03-01T13:30:00+00:00", "step": 3}}, {"type": "Feature", "geometry": {"type": "Point", "coordinates": [-111.864, 51.09866666666667]}, "properties": {"source": "satellite", "model_type": "cnn", "pred_class": 0, "severe_prob": 3.2970712239716832e-31, "timestamp": "2024-03-01T13:30:00+00:00", "step": 3}}, {"type": "Feature", "geometry": {"type": "Point", "coordinates": [-109.368, 51.09866666666667]}, "properties": {"source": "satellite", "model_type": "cnn", "pred_class": 0, "severe_prob": 1.166614760535724e-30, "timestamp": "2024-03-01T13:30:00+00:00", "step": 3}}, {"type": "Feature", "geometry": {"type": "Point", "coordinates": [-106.872, 51.09866666666667]}, "properties": {"source": "satellite", "model_type": "cnn", "pred_class": 0, "severe_prob": 4.1445053199823045e-30, "timestamp": "2024-03-01T13:30:00+00:00", "step": 3}}, {"type": "Feature", "geometry": {"type": "Point", "coordinates": [-104.376, 51.09866666666667]}, "properties": {"source": "satellite", "model_type": "cnn", "pred_class": 0, "severe_prob": 1.4724182805405596e-29, "timestamp": "2024-03-01T13:30:00+00:00", "step": 3}}, {"type": "Feature", "geometry": {"type": "Point", "coordinates": [-101.88, 51.09866666666667]}, "properties": {"source": "satellite", "model_type": "cnn", "pred_class": 0, "severe_prob": 5.256344300718863e-29, "timestamp": "2024-03-01T13:30:00+00:00", "step": 3}}, {"type": "Feature", "geometry": {"type": "Point", "coordinates": [-99.384, 51.09866666666667]}, "properties": {"source": "satellite", "model_type": "cnn", "pred_class": 0, "severe_prob": 2.0458506205281806e-28, "timestamp": "2024-03-01T13:30:00+00:00", "step": 3}}, {"type": "Feature", "geometry": {"type": "Point", "coordinates": [-96.888, 51.09866666666667]}, "properties": {"source": "satellite", "model_type": "cnn", "pred_class": 0, "severe_prob": 8.849389056881829e-28, "timestamp": "2024-03-01T13:30:00+00:00", "step": 3}}, {"type": "Feature", "geometry": {"type": "Point", "coordinates": [-94.392, 51.09866666666667]}, "properties": {"source": "satellite", "model_type": "cnn", "pred_class": 0, "severe_prob": 4.017243730144881e-27, "timestamp": "2024-03-01T13:30:00+00:00", "step": 3}}, {"type": "Feature", "geometry": {"type": "Point", "coordinates": [-91.896, 51.09866666666667]}, "properties": {"source": "satellite", "model_type": "cnn", "pred_class": 0, "severe_prob": 1.9264223661554168e-26, "timestamp": "2024-03-01T13:30:00+00:00", "step": 3}}, {"type": "Feature", "geometry": {"type": "Point", "coordinates": [-89.4, 51.09866666666667]}, "properties": {"source": "satellite", "model_type": "cnn", "pred_class": 0, "severe_prob": 9.251899363388022e-26, "timestamp": "2024-03-01T13:30:00+00:00", "step": 3}}, {"type": "Feature", "geometry": {"type": "Point", "coordinates": [-86.904, 51.09866666666667]}, "properties": {"source": "satellite", "model_type": "cnn", "pred_class": 0, "severe_prob": 4.454633436834504e-25, "timestamp": "2024-03-01T13:30:00+00:00", "step": 3}}, {"type": "Feature", "geometry": {"type": "Point", "coordinates": [-84.408, 51.09866666666667]}, "properties": {"source": "satellite", "model_type": "cnn", "pred_class": 0, "severe_prob": 2.1448556088803026e-24, "timestamp": "2024-03-01T13:30:00+00:00", "step": 3}}, {"type": "Feature", "geometry": {"type": "Point", "coordinates": [-81.912, 51.09866666666667]}, "properties": {"source": "satellite", "model_type": "cnn", "pred_class": 0, "severe_prob": 1.0327078295583229e-23, "timestamp": "2024-03-01T13:30:00+00:00", "step": 3}}, {"type": "Feature", "geometry": {"type": "Point", "coordinates": [-79.416, 51.09866666666667]}, "properties": {"source": "satellite", "model_type": "cnn", "pred_class": 0, "severe_prob": 4.972371092527514e-23, "timestamp": "2024-03-01T13:30:00+00:00", "step": 3}}, {"type": "Feature", "geometry": {"type": "Point", "coordinates": [-76.92, 51.09866666666667]}, "properties": {"source": "satellite", "model_type": "cnn", "pred_class": 0, "severe_prob": 2.3948254506828857e-22, "timestamp": "2024-03-01T13:30:00+00:00", "step": 3}}, {"type": "Feature", "geometry": {"type": "Point", "coordinates": [-74.424, 51.09866666666667]}, "properties": {"source": "satellite", "model_type": "cnn", "pred_class": 0, "severe_prob": 1.0884594222978962e-21, "timestamp": "2024-03-01T13:30:00+00:00", "step": 3}}, {"type": "Feature", "geometry": {"type": "Point", "coordinates": [-71.928, 51.09866666666667]}, "properties": {"source": "satellite", "model_type": "cnn", "pred_class": 0, "severe_prob": 5.1609947148071474e-21, "timestamp": "2024-03-01T13:30:00+00:00", "step": 3}}, {"type": "Feature", "geometry": {"type": "Point", "coordinates": [-69.432, 51.09866666666667]}, "properties": {"source": "satellite", "model_type": "cnn", "pred_class": 0, "severe_prob": 2.53367214926711e-20, "timestamp": "2024-03-01T13:30:00+00:00", "step": 3}}]}